{"type":"FeatureCollection","name":"pdam_tirtamarta_zona","catatan":"Batas zona diturunkan dari sebaran pipa distribusi per atribut zona (grid ~90 m), bukan batas resmi PDAM.","features":[{"type":"Feature","properties":{"zona":"Bedog","luas_km2":24.61,"label":[110.36226,-7.81724],"km_transmisi":8.6,"km_utama":22.7,"km_pembagi":82.1,"km_pelayanan":213.3},"geometry":{"type":"MultiPolygon","coordinates":[[[[110.34496,-7.75924],[110.34441,-7.75936],[110.34429,-7.7595],[110.34424,-7.75977],[110.34401,-7.75996],[110.34293,-7.76015],[110.34218,-7.7606],[110.34131,-7.76139],[110.34071,-7.76247],[110.33981,-7.76532],[110.33796,-7.77404],[110.33764,-7.77504],[110.33725,-7.77546],[110.3371,-7.77636],[110.33708,-7.77846],[110.33719,-7.77959],[110.33733,-7.77996],[110.33768,-7.78011],[110.33779,-7.78029],[110.33794,-7.78134],[110.33839,-7.78214],[110.33904,-7.78274],[110.33981,-7.78314],[110.34089,-7.78354],[110.34306,-7.78414],[110.34374,-7.78416],[110.34429,-7.78401],[110.34471,-7.78369],[110.34501,-7.78319],[110.34519,-7.78251],[110.34524,-7.78166],[110.34459,-7.77674],[110.34455,-7.77539],[110.34495,-7.77494],[110.34524,-7.77424],[110.34664,-7.76944],[110.3469,-7.76894],[110.34723,-7.76872],[110.34764,-7.76771],[110.34836,-7.76479],[110.34866,-7.76261],[110.34861,-7.7616],[110.34836,-7.76094],[110.34816,-7.76074],[110.34736,-7.76019],[110.34601,-7.75991],[110.34589,-7.75977],[110.34584,-7.7595],[110.34561,-7.75931],[110.34496,-7.75924]]],[[[110.35641,-7.79959],[110.35485,-7.79946],[110.35473,-7.79951],[110.35459,-7.79977],[110.35421,-7.79991],[110.35061,-7.80011],[110.34994,-7.8003],[110.34976,-7.80056],[110.34926,-7.80064],[110.34489,-7.8003],[110.34339,-7.80045],[110.34276,-7.80074],[110.34224,-7.80134],[110.34194,-7.80194],[110.34179,-7.80299],[110.3416,-7.80321],[110.34141,-7.80324],[110.34125,-7.80365],[110.34108,-7.80612],[110.34114,-7.81066],[110.34133,-7.8119],[110.34141,-7.81204],[110.34168,-7.81215],[110.34179,-7.81241],[110.34201,-7.81421],[110.34239,-7.81492],[110.34299,-7.81554],[110.34381,-7.81614],[110.34526,-7.81694],[110.34564,-7.81727],[110.34631,-7.81836],[110.34689,-7.82],[110.34714,-7.82102],[110.34778,-7.82466],[110.34824,-7.82664],[110.34875,-7.82811],[110.34931,-7.82909],[110.34993,-7.82965],[110.35094,-7.83021],[110.35168,-7.8304],[110.35284,-7.8305],[110.35351,-7.83081],[110.35409,-7.83137],[110.35434,-7.83175],[110.35498,-7.83314],[110.35569,-7.83419],[110.35623,-7.83464],[110.35764,-7.83529],[110.35783,-7.83549],[110.35786,-7.83569],[110.35809,-7.83581],[110.35944,-7.83576],[110.36158,-7.83535],[110.36263,-7.8349],[110.36326,-7.83416],[110.36371,-7.83389],[110.36476,-7.83366],[110.36618,-7.83361],[110.36699,-7.83349],[110.36793,-7.83311],[110.36904,-7.83229],[110.36983,-7.83206],[110.37041,-7.83204],[110.37101,-7.83219],[110.37161,-7.83254],[110.37221,-7.83309],[110.37313,-7.83419],[110.37414,-7.83494],[110.37488,-7.83519],[110.37605,-7.83529],[110.37714,-7.83574],[110.3778,-7.83629],[110.37874,-7.83739],[110.37946,-7.83794],[110.38074,-7.83839],[110.38171,-7.83844],[110.38268,-7.83862],[110.38359,-7.83906],[110.38445,-7.83975],[110.38575,-7.84112],[110.38699,-7.84181],[110.38774,-7.84206],[110.3895,-7.84237],[110.39261,-7.8424],[110.39501,-7.84206],[110.39561,-7.84187],[110.39651,-7.84139],[110.3973,-7.84052],[110.39764,-7.84001],[110.39786,-7.83934],[110.39783,-7.83881],[110.39768,-7.83851],[110.39733,-7.8384],[110.39719,-7.83821],[110.39699,-7.83641],[110.3968,-7.83607],[110.39651,-7.83595],[110.39631,-7.83551],[110.39569,-7.83225],[110.39536,-7.83116],[110.39469,-7.83],[110.39385,-7.82925],[110.39344,-7.82841],[110.39318,-7.82722],[110.39303,-7.82397],[110.39284,-7.82261],[110.39269,-7.82206],[110.39228,-7.82122],[110.39145,-7.8205],[110.39089,-7.81956],[110.39066,-7.81829],[110.39081,-7.81651],[110.39119,-7.81557],[110.39176,-7.81496],[110.39256,-7.81451],[110.39361,-7.81436],[110.39379,-7.81425],[110.39394,-7.8139],[110.39409,-7.81382],[110.39499,-7.81367],[110.39713,-7.8136],[110.39814,-7.81341],[110.39938,-7.81285],[110.40058,-7.8118],[110.40109,-7.81146],[110.40155,-7.81127],[110.40251,-7.81111],[110.40266,-7.81079],[110.40285,-7.81062],[110.4036,-7.81047],[110.40491,-7.81044],[110.40535,-7.81031],[110.40573,-7.81006],[110.40604,-7.80969],[110.40629,-7.80919],[110.40648,-7.80856],[110.4066,-7.80781],[110.40666,-7.80594],[110.40633,-7.80505],[110.40565,-7.80427],[110.40464,-7.80361],[110.40329,-7.80306],[110.4016,-7.80262],[110.39958,-7.8023],[110.39721,-7.80209],[110.39013,-7.80179],[110.38608,-7.80149],[110.38506,-7.80129],[110.38495,-7.80102],[110.38469,-7.80091],[110.38304,-7.80076],[110.3827,-7.80057],[110.3826,-7.80031],[110.38229,-7.80024],[110.38135,-7.80031],[110.3796,-7.80069],[110.37885,-7.80099],[110.37858,-7.80137],[110.37814,-7.80151],[110.37683,-7.80162],[110.3749,-7.80162],[110.37333,-7.80145],[110.37306,-7.80129],[110.37295,-7.80102],[110.37269,-7.80091],[110.37104,-7.80076],[110.3707,-7.80057],[110.37051,-7.80016],[110.37014,-7.80005],[110.36931,-7.80011],[110.36909,-7.8003],[110.36906,-7.80049],[110.3689,-7.80057],[110.36809,-7.80071],[110.36565,-7.80082],[110.3611,-7.8008],[110.35883,-7.80057],[110.35866,-7.80049],[110.3586,-7.80029],[110.35829,-7.80009],[110.35641,-7.79959]]]]}},{"type":"Feature","properties":{"zona":"Gemawang","luas_km2":9.67,"label":[110.36146,-7.76924],"km_transmisi":17.5,"km_utama":23.2,"km_pembagi":39.3,"km_pelayanan":124.2},"geometry":{"type":"MultiPolygon","coordinates":[[[[110.37036,-7.74759],[110.36849,-7.74746],[110.36834,-7.74751],[110.36821,-7.74779],[110.36796,-7.74799],[110.36646,-7.74849],[110.36578,-7.74895],[110.36524,-7.74976],[110.36503,-7.7503],[110.36471,-7.75164],[110.36438,-7.75381],[110.36409,-7.75489],[110.36375,-7.75566],[110.36313,-7.75631],[110.36254,-7.75659],[110.3618,-7.75676],[110.35993,-7.75692],[110.35899,-7.75736],[110.3581,-7.75815],[110.35768,-7.75867],[110.35644,-7.76059],[110.35599,-7.76109],[110.35501,-7.76179],[110.35394,-7.76209],[110.35179,-7.76186],[110.35089,-7.76186],[110.35066,-7.76199],[110.35059,-7.76225],[110.35041,-7.76236],[110.34924,-7.76251],[110.34871,-7.76279],[110.34853,-7.76302],[110.34834,-7.76366],[110.34814,-7.76614],[110.348,-7.76639],[110.34765,-7.76655],[110.34754,-7.76681],[110.34746,-7.76749],[110.34751,-7.76806],[110.34796,-7.76874],[110.34851,-7.76906],[110.34965,-7.76941],[110.35074,-7.76994],[110.35171,-7.77069],[110.35231,-7.77135],[110.35291,-7.77226],[110.35351,-7.77342],[110.35536,-7.77784],[110.35569,-7.77834],[110.35608,-7.77862],[110.35625,-7.77975],[110.35619,-7.78181],[110.356,-7.78237],[110.35573,-7.78247],[110.35559,-7.78266],[110.35539,-7.78446],[110.3552,-7.7848],[110.35501,-7.78484],[110.35489,-7.78525],[110.35489,-7.7869],[110.35526,-7.79281],[110.35519,-7.7935],[110.35493,-7.79371],[110.35474,-7.79439],[110.35466,-7.79634],[110.35474,-7.79739],[110.35504,-7.79859],[110.35536,-7.79914],[110.35578,-7.79951],[110.35675,-7.79996],[110.35844,-7.80016],[110.35863,-7.8003],[110.35866,-7.80049],[110.35915,-7.80065],[110.36208,-7.80082],[110.36751,-7.80076],[110.36916,-7.80057],[110.36951,-7.80039],[110.36959,-7.80007],[110.36966,-7.79786],[110.36935,-7.79034],[110.36939,-7.78674],[110.3696,-7.78534],[110.36976,-7.78494],[110.37014,-7.78442],[110.37041,-7.78346],[110.37059,-7.78205],[110.37066,-7.78019],[110.37054,-7.77606],[110.3704,-7.77537],[110.37013,-7.77517],[110.36994,-7.77461],[110.36989,-7.77252],[110.37001,-7.77171],[110.37024,-7.77105],[110.37131,-7.76954],[110.37159,-7.76819],[110.37173,-7.76806],[110.372,-7.76801],[110.37219,-7.76779],[110.37234,-7.76669],[110.37245,-7.76651],[110.37288,-7.76632],[110.37306,-7.76539],[110.37304,-7.7648],[110.37281,-7.76401],[110.37161,-7.76234],[110.37134,-7.76099],[110.37101,-7.76084],[110.37085,-7.76065],[110.37066,-7.75909],[110.37074,-7.7577],[110.37091,-7.75696],[110.37119,-7.75637],[110.37211,-7.75514],[110.37239,-7.75379],[110.37271,-7.75364],[110.37288,-7.75337],[110.37305,-7.7518],[110.37299,-7.74986],[110.37261,-7.74884],[110.37231,-7.74844],[110.37149,-7.74786],[110.37036,-7.74759]]]]}},{"type":"Feature","properties":{"zona":"Padasan","luas_km2":24.92,"label":[110.38546,-7.74684],"km_transmisi":56.1,"km_utama":29.2,"km_pembagi":28.3,"km_pelayanan":75.1},"geometry":{"type":"MultiPolygon","coordinates":[[[[110.42886,-7.66484],[110.42766,-7.66514],[110.42686,-7.66559],[110.42566,-7.66664],[110.42498,-7.6677],[110.42469,-7.66836],[110.42423,-7.66995],[110.42369,-7.67399],[110.42336,-7.67569],[110.42294,-7.67699],[110.42241,-7.67789],[110.4218,-7.67845],[110.42079,-7.67901],[110.42005,-7.6792],[110.41816,-7.67936],[110.41791,-7.6795],[110.41784,-7.67977],[110.41761,-7.67996],[110.41651,-7.68011],[110.41629,-7.6803],[110.41624,-7.68057],[110.41611,-7.68071],[110.41516,-7.68086],[110.41456,-7.68109],[110.41396,-7.68154],[110.41358,-7.68201],[110.41324,-7.68279],[110.41295,-7.68386],[110.41221,-7.68824],[110.41201,-7.68874],[110.41173,-7.68892],[110.41159,-7.68936],[110.41148,-7.69067],[110.4115,-7.69312],[110.41165,-7.69417],[110.41181,-7.69444],[110.41208,-7.69455],[110.41219,-7.69481],[110.41239,-7.69661],[110.41253,-7.6968],[110.41281,-7.69687],[110.41301,-7.69706],[110.41351,-7.69819],[110.41409,-7.69864],[110.41516,-7.69889],[110.41589,-7.69894],[110.41983,-7.69876],[110.42159,-7.69894],[110.423,-7.69941],[110.42358,-7.69976],[110.42493,-7.70112],[110.42604,-7.70181],[110.42669,-7.70206],[110.42818,-7.70237],[110.43073,-7.70241],[110.43264,-7.70219],[110.43348,-7.70191],[110.43396,-7.70154],[110.43429,-7.70072],[110.43451,-7.69936],[110.43466,-7.69499],[110.4344,-7.69269],[110.43414,-7.69169],[110.43379,-7.69079],[110.43335,-7.68999],[110.43283,-7.68929],[110.43221,-7.68869],[110.42994,-7.68691],[110.42933,-7.68625],[110.42906,-7.68574],[110.42919,-7.68499],[110.42963,-7.68474],[110.42989,-7.68424],[110.43129,-7.67944],[110.43158,-7.67874],[110.43181,-7.67844],[110.43191,-7.67844],[110.43211,-7.67791],[110.43261,-7.67354],[110.43276,-7.66975],[110.43261,-7.66791],[110.43246,-7.6672],[110.43201,-7.66619],[110.4314,-7.66562],[110.43039,-7.66506],[110.42965,-7.66487],[110.42886,-7.66484]]],[[[110.41126,-7.70164],[110.41016,-7.70176],[110.40991,-7.7019],[110.40984,-7.70217],[110.40961,-7.70236],[110.40836,-7.70259],[110.40776,-7.70296],[110.40718,-7.70356],[110.40655,-7.70471],[110.40584,-7.70681],[110.40535,-7.70745],[110.4046,-7.708],[110.40429,-7.70846],[110.40341,-7.71094],[110.40321,-7.71119],[110.40293,-7.71126],[110.40274,-7.71149],[110.40251,-7.71266],[110.40214,-7.71307],[110.40156,-7.71345],[110.40116,-7.71396],[110.40076,-7.71472],[110.39949,-7.71791],[110.39898,-7.71877],[110.39811,-7.71979],[110.39733,-7.72027],[110.39568,-7.72072],[110.39216,-7.72087],[110.39096,-7.72102],[110.39066,-7.72119],[110.39051,-7.72151],[110.38916,-7.72179],[110.38856,-7.72216],[110.38816,-7.72254],[110.38761,-7.72334],[110.38743,-7.72434],[110.38724,-7.72474],[110.38551,-7.72636],[110.38461,-7.72786],[110.38296,-7.73184],[110.38259,-7.73254],[110.38231,-7.73284],[110.38211,-7.73291],[110.38191,-7.73329],[110.38129,-7.73607],[110.38076,-7.73731],[110.38029,-7.73782],[110.379,-7.73847],[110.37713,-7.74],[110.37596,-7.74114],[110.37495,-7.7426],[110.37454,-7.74346],[110.3739,-7.74545],[110.37351,-7.74779],[110.37318,-7.75127],[110.37273,-7.75352],[110.37236,-7.75434],[110.37199,-7.75474],[110.37161,-7.75534],[110.37139,-7.75659],[110.37128,-7.75676],[110.37101,-7.75684],[110.37085,-7.75702],[110.3707,-7.75777],[110.37069,-7.75955],[110.37091,-7.76071],[110.37119,-7.7613],[110.37211,-7.76254],[110.37234,-7.76379],[110.37245,-7.76396],[110.37288,-7.76415],[110.37306,-7.76509],[110.37304,-7.76567],[110.37281,-7.76646],[110.37171,-7.76794],[110.37149,-7.76854],[110.37139,-7.76939],[110.37128,-7.76956],[110.37079,-7.76979],[110.37059,-7.77099],[110.3704,-7.77121],[110.37021,-7.77124],[110.37009,-7.7718],[110.37014,-7.77517],[110.37055,-7.78042],[110.37084,-7.78211],[110.37118,-7.78305],[110.37136,-7.78324],[110.372,-7.78312],[110.37275,-7.78267],[110.37361,-7.78189],[110.37418,-7.7811],[110.37493,-7.77945],[110.37579,-7.77649],[110.37631,-7.77514],[110.37694,-7.77399],[110.37841,-7.77219],[110.37871,-7.77169],[110.37916,-7.77054],[110.37931,-7.76989],[110.3795,-7.7669],[110.37969,-7.76561],[110.38003,-7.76457],[110.38051,-7.76379],[110.3811,-7.76322],[110.38189,-7.76266],[110.38235,-7.76247],[110.38296,-7.7624],[110.38336,-7.76221],[110.38396,-7.76165],[110.3846,-7.76081],[110.38554,-7.76014],[110.38681,-7.75969],[110.38851,-7.75944],[110.38926,-7.75951],[110.38979,-7.75984],[110.38993,-7.75947],[110.39024,-7.75921],[110.39256,-7.75811],[110.39331,-7.75759],[110.39386,-7.75696],[110.39421,-7.75624],[110.39461,-7.75494],[110.39491,-7.75449],[110.39511,-7.75444],[110.39528,-7.7541],[110.39543,-7.75275],[110.39549,-7.74959],[110.39561,-7.74829],[110.39584,-7.74739],[110.39616,-7.74689],[110.39655,-7.74659],[110.39704,-7.74539],[110.39775,-7.74085],[110.39804,-7.73966],[110.39856,-7.73854],[110.39956,-7.73779],[110.40036,-7.73764],[110.40116,-7.73789],[110.40196,-7.73854],[110.40225,-7.73939],[110.4024,-7.74179],[110.40215,-7.74679],[110.40219,-7.74964],[110.4024,-7.75079],[110.40293,-7.75164],[110.40314,-7.75254],[110.40318,-7.75464],[110.40286,-7.75929],[110.40294,-7.75991],[110.40328,-7.76015],[110.40339,-7.76041],[110.40349,-7.76167],[110.40371,-7.76246],[110.40436,-7.76334],[110.40519,-7.76379],[110.40635,-7.76401],[110.40779,-7.764],[110.40866,-7.76381],[110.40979,-7.76325],[110.41069,-7.76234],[110.41116,-7.76149],[110.41169,-7.75984],[110.41231,-7.75656],[110.41251,-7.75612],[110.4128,-7.756],[110.41294,-7.75581],[110.41314,-7.75401],[110.41333,-7.75367],[110.4136,-7.75357],[110.41374,-7.75326],[110.41385,-7.75232],[110.41383,-7.75091],[110.41349,-7.74964],[110.41308,-7.74891],[110.41226,-7.74787],[110.41191,-7.74671],[110.41176,-7.74412],[110.41206,-7.73854],[110.41199,-7.73779],[110.41191,-7.73764],[110.41165,-7.73749],[110.41154,-7.73714],[110.41135,-7.73511],[110.4109,-7.73421],[110.40984,-7.73331],[110.40916,-7.73249],[110.40884,-7.73181],[110.40831,-7.73014],[110.40811,-7.72979],[110.40781,-7.72964],[110.40761,-7.72937],[110.40711,-7.72719],[110.40695,-7.72585],[110.40694,-7.72476],[110.4072,-7.7236],[110.40811,-7.72234],[110.40841,-7.72101],[110.40879,-7.7206],[110.40936,-7.72022],[110.40976,-7.71971],[110.41036,-7.71847],[110.41116,-7.71632],[110.41156,-7.71556],[110.41196,-7.71505],[110.41276,-7.7144],[110.41316,-7.71376],[110.41464,-7.71009],[110.4149,-7.70971],[110.4152,-7.7096],[110.41534,-7.70941],[110.41554,-7.70761],[110.41573,-7.70727],[110.416,-7.7072],[110.41614,-7.70701],[110.41626,-7.70619],[110.41621,-7.70557],[110.41576,-7.70456],[110.41446,-7.70304],[110.41366,-7.70239],[110.41286,-7.70194],[110.41206,-7.70169],[110.41126,-7.70164]]]]}},{"type":"Feature","properties":{"zona":"Karanggayam","luas_km2":6.34,"label":[110.38306,-7.77804],"km_transmisi":1.3,"km_utama":8.6,"km_pembagi":33.9,"km_pelayanan":63.4},"geometry":{"type":"MultiPolygon","coordinates":[[[[110.38851,-7.75959],[110.38769,-7.75944],[110.3875,-7.75951],[110.38743,-7.75977],[110.38724,-7.75991],[110.38583,-7.76007],[110.38529,-7.76026],[110.38458,-7.76082],[110.38396,-7.76165],[110.38336,-7.76221],[110.38296,-7.7624],[110.38235,-7.76247],[110.38189,-7.76266],[110.3811,-7.76322],[110.38051,-7.76379],[110.38003,-7.76457],[110.37969,-7.76561],[110.3795,-7.7669],[110.37941,-7.76919],[110.37896,-7.77114],[110.37841,-7.77219],[110.37656,-7.77439],[110.37631,-7.77491],[110.37614,-7.77589],[110.37581,-7.77604],[110.37561,-7.77626],[110.37531,-7.77716],[110.37489,-7.7793],[110.37436,-7.78076],[110.37361,-7.78189],[110.37275,-7.78267],[110.372,-7.78312],[110.37118,-7.78327],[110.37084,-7.78346],[110.37043,-7.78402],[110.36991,-7.78526],[110.36961,-7.7856],[110.36941,-7.78564],[110.36929,-7.78631],[110.36929,-7.78901],[110.36971,-7.7967],[110.37011,-7.80007],[110.37021,-7.80039],[110.37053,-7.80059],[110.37129,-7.80079],[110.37328,-7.80109],[110.37604,-7.80136],[110.37791,-7.80144],[110.37854,-7.80136],[110.37878,-7.80102],[110.37904,-7.80091],[110.38076,-7.80076],[110.38141,-7.80049],[110.38168,-7.80007],[110.38179,-7.79961],[110.38183,-7.79759],[110.38168,-7.79699],[110.38133,-7.79679],[110.38119,-7.79654],[110.38099,-7.79414],[110.3808,-7.79369],[110.38045,-7.79349],[110.38028,-7.79259],[110.38026,-7.79184],[110.38038,-7.79107],[110.38083,-7.79002],[110.38131,-7.78939],[110.38218,-7.7886],[110.38293,-7.78815],[110.38376,-7.788],[110.38416,-7.78781],[110.38476,-7.78725],[110.38576,-7.78601],[110.38636,-7.78567],[110.38729,-7.78549],[110.3877,-7.78511],[110.38806,-7.78455],[110.38851,-7.78421],[110.38916,-7.78392],[110.39148,-7.78327],[110.39283,-7.78252],[110.39366,-7.78184],[110.39441,-7.78106],[110.39531,-7.77981],[110.39546,-7.77914],[110.39528,-7.77862],[110.39453,-7.77757],[110.39321,-7.77619],[110.39179,-7.77499],[110.3909,-7.77444],[110.38894,-7.77375],[110.38804,-7.7733],[110.38736,-7.77274],[110.38708,-7.77219],[110.38694,-7.77144],[110.38695,-7.77049],[110.38735,-7.76829],[110.3878,-7.76709],[110.38881,-7.76566],[110.38904,-7.76487],[110.38914,-7.76361],[110.38933,-7.76327],[110.38968,-7.76309],[110.38983,-7.76249],[110.38986,-7.76144],[110.38964,-7.76046],[110.38908,-7.75982],[110.38851,-7.75959]]]]}},{"type":"Feature","properties":{"zona":"Bener","luas_km2":3.66,"label":[110.35026,-7.77884],"km_transmisi":0,"km_utama":1.4,"km_pembagi":8.4,"km_pelayanan":37.4},"geometry":{"type":"MultiPolygon","coordinates":[[[[110.34841,-7.76919],[110.34795,-7.7692],[110.34714,-7.76956],[110.34648,-7.77037],[110.34596,-7.77164],[110.34509,-7.77464],[110.34483,-7.77514],[110.34461,-7.77524],[110.34455,-7.77542],[110.34459,-7.77711],[110.34545,-7.78442],[110.3456,-7.78667],[110.34551,-7.78724],[110.34533,-7.7873],[110.34514,-7.78786],[110.34494,-7.79086],[110.3448,-7.79117],[110.34451,-7.79137],[110.34421,-7.79261],[110.34381,-7.79619],[110.34383,-7.79716],[110.34395,-7.79801],[110.34419,-7.79874],[110.34454,-7.79934],[110.345,-7.79981],[110.34558,-7.80016],[110.34626,-7.80039],[110.34926,-7.80064],[110.34976,-7.80056],[110.34994,-7.8003],[110.35061,-7.80011],[110.35434,-7.79991],[110.35501,-7.79969],[110.35524,-7.79939],[110.35524,-7.79909],[110.35493,-7.79862],[110.35474,-7.79776],[110.35468,-7.79521],[110.35479,-7.79409],[110.35493,-7.79371],[110.3552,-7.7936],[110.35534,-7.79341],[110.35546,-7.79229],[110.35534,-7.79146],[110.3552,-7.79127],[110.35493,-7.79114],[110.35479,-7.79064],[110.35468,-7.78914],[110.3547,-7.78634],[110.35485,-7.78514],[110.35501,-7.78484],[110.35528,-7.78472],[110.35539,-7.78446],[110.35559,-7.78266],[110.35573,-7.78247],[110.356,-7.78237],[110.35614,-7.78206],[110.35626,-7.78019],[110.35608,-7.77862],[110.35569,-7.77834],[110.35536,-7.77784],[110.35351,-7.77342],[110.35291,-7.77226],[110.35231,-7.77135],[110.35171,-7.77069],[110.35066,-7.76994],[110.34939,-7.76941],[110.34841,-7.76919]]]]}},{"type":"Feature","properties":{"zona":"Pengok","luas_km2":4.81,"label":[110.39266,-7.79244],"km_transmisi":0,"km_utama":0.1,"km_pembagi":20.3,"km_pelayanan":36.7},"geometry":{"type":"MultiPolygon","coordinates":[[[[110.39721,-7.78064],[110.39625,-7.78017],[110.39579,-7.78011],[110.3949,-7.78032],[110.39406,-7.78099],[110.39325,-7.78194],[110.39239,-7.78269],[110.391,-7.78344],[110.38956,-7.7838],[110.38851,-7.78421],[110.38806,-7.78455],[110.3877,-7.78511],[110.38729,-7.78549],[110.38636,-7.78567],[110.38576,-7.78601],[110.38476,-7.78725],[110.38416,-7.78781],[110.38376,-7.788],[110.38315,-7.78807],[110.38269,-7.78826],[110.3819,-7.78882],[110.38131,-7.78939],[110.3809,-7.79032],[110.38074,-7.79171],[110.38096,-7.79464],[110.38139,-7.7969],[110.38191,-7.79861],[110.38254,-7.79977],[110.38289,-7.80015],[110.38326,-7.80039],[110.38476,-7.80089],[110.38501,-7.80109],[110.38506,-7.80129],[110.38608,-7.80149],[110.39013,-7.80179],[110.39721,-7.80209],[110.39958,-7.80205],[110.4016,-7.80187],[110.40329,-7.80156],[110.40464,-7.80111],[110.40565,-7.80052],[110.40633,-7.7998],[110.40666,-7.79894],[110.40663,-7.79702],[110.40629,-7.79481],[110.40588,-7.79377],[110.40531,-7.79309],[110.40434,-7.79234],[110.40363,-7.79196],[110.40211,-7.79142],[110.40156,-7.79091],[110.40136,-7.79056],[110.40111,-7.78967],[110.40104,-7.78799],[110.40081,-7.78664],[110.40054,-7.78599],[110.39971,-7.78486],[110.39954,-7.78435],[110.39946,-7.78349],[110.39928,-7.78285],[110.39853,-7.7818],[110.39721,-7.78064]]]]}},{"type":"Feature","properties":{"zona":"Kotagede","luas_km2":5.1,"label":[110.40066,-7.82124],"km_transmisi":0,"km_utama":2.1,"km_pembagi":7.7,"km_pelayanan":32.4},"geometry":{"type":"MultiPolygon","coordinates":[[[[110.40441,-7.81044],[110.40285,-7.81062],[110.40266,-7.81079],[110.40251,-7.81111],[110.40155,-7.81127],[110.40109,-7.81146],[110.39935,-7.81286],[110.39789,-7.81354],[110.3966,-7.81386],[110.39369,-7.81432],[110.39261,-7.81461],[110.39184,-7.81495],[110.39136,-7.81534],[110.39104,-7.81585],[110.39081,-7.81651],[110.39066,-7.81779],[110.3907,-7.81875],[110.39104,-7.81991],[110.39145,-7.8205],[110.39228,-7.82122],[110.39269,-7.82206],[110.39284,-7.82261],[110.39303,-7.82397],[110.39318,-7.82722],[110.39344,-7.82841],[110.39385,-7.82925],[110.39471,-7.83006],[110.39531,-7.83109],[110.39621,-7.83356],[110.39681,-7.83584],[110.3976,-7.83782],[110.39809,-7.83861],[110.39864,-7.83926],[110.39925,-7.83977],[110.39993,-7.84015],[110.40066,-7.84039],[110.40326,-7.84064],[110.40416,-7.84056],[110.40449,-7.84016],[110.40589,-7.84],[110.40636,-7.83981],[110.40689,-7.83925],[110.40723,-7.83841],[110.40764,-7.83774],[110.40869,-7.83695],[110.40891,-7.83666],[110.40914,-7.83549],[110.40925,-7.83531],[110.40951,-7.83524],[110.40961,-7.83511],[110.40981,-7.83449],[110.41011,-7.83261],[110.41038,-7.82984],[110.41039,-7.82834],[110.41025,-7.82724],[110.41013,-7.82684],[110.40959,-7.82601],[110.40921,-7.82429],[110.40895,-7.81817],[110.4085,-7.81592],[110.40828,-7.8154],[110.40723,-7.81405],[110.40689,-7.81336],[110.4067,-7.81262],[110.4066,-7.81149],[110.40648,-7.81119],[110.40604,-7.81074],[110.40573,-7.81059],[110.40441,-7.81044]]]]}},{"type":"Feature","properties":{"zona":"_layanan"},"geometry":{"type":"MultiPolygon","coordinates":[[[[110.42886,-7.66484],[110.42766,-7.66514],[110.42686,-7.66559],[110.42566,-7.66664],[110.42498,-7.6677],[110.42469,-7.66836],[110.42423,-7.66995],[110.42369,-7.67399],[110.42336,-7.67569],[110.42294,-7.67699],[110.42241,-7.67789],[110.4218,-7.67845],[110.42079,-7.67901],[110.42005,-7.6792],[110.41816,-7.67936],[110.41791,-7.6795],[110.41784,-7.67977],[110.41761,-7.67996],[110.41651,-7.68011],[110.41629,-7.6803],[110.41624,-7.68057],[110.41611,-7.68071],[110.41516,-7.68086],[110.41456,-7.68109],[110.41396,-7.68154],[110.41358,-7.68201],[110.41324,-7.68279],[110.41295,-7.68386],[110.41221,-7.68824],[110.41201,-7.68874],[110.41173,-7.68892],[110.41159,-7.68936],[110.41148,-7.69067],[110.4115,-7.69312],[110.41165,-7.69417],[110.41181,-7.69444],[110.41208,-7.69455],[110.41219,-7.69481],[110.41239,-7.69661],[110.41253,-7.6968],[110.41281,-7.69687],[110.41301,-7.69706],[110.41351,-7.69819],[110.41409,-7.69864],[110.41516,-7.69889],[110.41589,-7.69894],[110.41983,-7.69876],[110.42159,-7.69894],[110.423,-7.69941],[110.42358,-7.69976],[110.42493,-7.70112],[110.42604,-7.70181],[110.42669,-7.70206],[110.42818,-7.70237],[110.43073,-7.70241],[110.43264,-7.70219],[110.43348,-7.70191],[110.43396,-7.70154],[110.43429,-7.70072],[110.43451,-7.69936],[110.43466,-7.69499],[110.4344,-7.69269],[110.43414,-7.69169],[110.43379,-7.69079],[110.43335,-7.68999],[110.43283,-7.68929],[110.43221,-7.68869],[110.42994,-7.68691],[110.42933,-7.68625],[110.42906,-7.68574],[110.42919,-7.68499],[110.42963,-7.68474],[110.42989,-7.68424],[110.43129,-7.67944],[110.43158,-7.67874],[110.43181,-7.67844],[110.43191,-7.67844],[110.43211,-7.67791],[110.43261,-7.67354],[110.43276,-7.66975],[110.43261,-7.66791],[110.43246,-7.6672],[110.43201,-7.66619],[110.4314,-7.66562],[110.43039,-7.66506],[110.42965,-7.66487],[110.42886,-7.66484]]],[[[110.41126,-7.70164],[110.41016,-7.70176],[110.40991,-7.7019],[110.40984,-7.70217],[110.40961,-7.70236],[110.40836,-7.70259],[110.40776,-7.70296],[110.40718,-7.70356],[110.40655,-7.70471],[110.40584,-7.70681],[110.40535,-7.70745],[110.4046,-7.708],[110.40429,-7.70846],[110.40341,-7.71094],[110.40321,-7.71119],[110.40293,-7.71126],[110.40274,-7.71149],[110.40251,-7.71266],[110.40214,-7.71307],[110.40156,-7.71345],[110.40116,-7.71396],[110.40076,-7.71472],[110.39949,-7.71791],[110.39898,-7.71877],[110.39811,-7.71979],[110.39733,-7.72027],[110.39568,-7.72072],[110.39216,-7.72087],[110.39096,-7.72102],[110.39066,-7.72119],[110.39059,-7.72145],[110.39041,-7.72156],[110.38956,-7.72166],[110.38896,-7.72189],[110.38799,-7.72274],[110.38761,-7.72334],[110.38743,-7.72434],[110.38724,-7.72474],[110.3869,-7.72514],[110.38581,-7.72601],[110.38491,-7.72729],[110.38431,-7.72851],[110.38276,-7.73224],[110.38244,-7.73274],[110.38201,-7.73306],[110.38171,-7.73396],[110.38129,-7.73607],[110.38076,-7.73731],[110.38029,-7.73782],[110.379,-7.73847],[110.37713,-7.74],[110.37544,-7.74175],[110.37461,-7.74301],[110.37409,-7.74432],[110.37386,-7.74569],[110.37381,-7.74699],[110.37371,-7.74749],[110.37336,-7.74819],[110.37281,-7.74849],[110.37246,-7.74849],[110.37096,-7.74799],[110.37071,-7.74779],[110.37059,-7.74751],[110.36991,-7.74744],[110.36743,-7.74781],[110.36619,-7.74834],[110.36568,-7.74881],[110.36501,-7.75021],[110.36481,-7.7504],[110.36461,-7.75044],[110.36445,-7.75066],[110.3643,-7.75156],[110.36424,-7.75369],[110.36411,-7.75464],[110.36389,-7.75539],[110.36356,-7.75594],[110.36313,-7.75631],[110.36254,-7.75659],[110.3618,-7.75676],[110.35993,-7.75692],[110.35899,-7.75736],[110.3581,-7.75815],[110.35768,-7.75867],[110.35644,-7.76059],[110.35599,-7.76109],[110.35501,-7.76179],[110.35394,-7.76209],[110.35179,-7.76186],[110.35089,-7.76186],[110.35066,-7.76199],[110.35059,-7.76225],[110.35041,-7.76236],[110.34956,-7.7624],[110.34896,-7.76206],[110.34794,-7.76081],[110.34711,-7.76014],[110.34606,-7.75969],[110.34456,-7.75944],[110.34431,-7.75951],[110.34424,-7.75977],[110.34401,-7.75996],[110.34293,-7.76015],[110.34218,-7.7606],[110.34131,-7.76139],[110.34071,-7.76247],[110.33981,-7.76532],[110.33796,-7.77404],[110.33764,-7.77504],[110.33751,-7.77524],[110.33733,-7.77531],[110.33719,-7.77569],[110.33706,-7.77794],[110.33719,-7.77959],[110.33733,-7.77996],[110.33774,-7.78019],[110.33801,-7.78154],[110.33876,-7.78254],[110.33939,-7.78294],[110.34031,-7.78334],[110.34375,-7.78441],[110.34433,-7.78476],[110.34479,-7.78519],[110.34514,-7.78569],[110.34538,-7.78626],[110.34551,-7.78764],[110.34501,-7.79064],[110.34481,-7.79114],[110.34451,-7.79139],[110.34431,-7.79214],[110.34369,-7.79772],[110.34336,-7.79956],[110.34316,-7.80031],[110.34269,-7.80147],[110.34211,-7.80219],[110.34163,-7.80309],[110.34129,-7.80439],[110.34106,-7.80709],[110.3411,-7.80997],[110.34125,-7.81162],[110.34141,-7.81204],[110.3416,-7.81207],[110.34174,-7.81226],[110.34194,-7.81395],[110.34239,-7.81492],[110.34351,-7.81594],[110.34526,-7.81694],[110.34599,-7.81775],[110.34631,-7.81836],[110.34689,-7.82],[110.34714,-7.82102],[110.34778,-7.82466],[110.34824,-7.82664],[110.34875,-7.82811],[110.34931,-7.82909],[110.34993,-7.82965],[110.35094,-7.83021],[110.35168,-7.8304],[110.35284,-7.8305],[110.35351,-7.83081],[110.35409,-7.83137],[110.35434,-7.83175],[110.35498,-7.83314],[110.35569,-7.83419],[110.35623,-7.83464],[110.35764,-7.83529],[110.35794,-7.83576],[110.35861,-7.83584],[110.35944,-7.83576],[110.36158,-7.83535],[110.36263,-7.8349],[110.36326,-7.83416],[110.36371,-7.83389],[110.36476,-7.83366],[110.36618,-7.83361],[110.36699,-7.83349],[110.36793,-7.83311],[110.36858,-7.83256],[110.36929,-7.83219],[110.37011,-7.83204],[110.37071,-7.83209],[110.37131,-7.83234],[110.37191,-7.83279],[110.37313,-7.83419],[110.37379,-7.83474],[110.3745,-7.83509],[110.37605,-7.83529],[110.37679,-7.83554],[110.3778,-7.83629],[110.37909,-7.83769],[110.37986,-7.83814],[110.38074,-7.83839],[110.3822,-7.8385],[110.38314,-7.83881],[110.38403,-7.83937],[110.38526,-7.84069],[110.38633,-7.8415],[110.38774,-7.84206],[110.38858,-7.84225],[110.39051,-7.84244],[110.39161,-7.84244],[110.39348,-7.84232],[110.39489,-7.84206],[110.39585,-7.84165],[110.39665,-7.84084],[110.39703,-7.84064],[110.39804,-7.84039],[110.3994,-7.84034],[110.40359,-7.84064],[110.40415,-7.84056],[110.40438,-7.84022],[110.40464,-7.84011],[110.40614,-7.83992],[110.40674,-7.83947],[110.40764,-7.83774],[110.40881,-7.83681],[110.40904,-7.83632],[110.40914,-7.83549],[110.40925,-7.83531],[110.40951,-7.83524],[110.40971,-7.83486],[110.41001,-7.83336],[110.41031,-7.83074],[110.4104,-7.82904],[110.41034,-7.82774],[110.41013,-7.82684],[110.40959,-7.82601],[110.40931,-7.82499],[110.40909,-7.82251],[110.40903,-7.81915],[110.40869,-7.81656],[110.40828,-7.8154],[110.40771,-7.81469],[110.40745,-7.81412],[110.40704,-7.81221],[110.4067,-7.80737],[110.40655,-7.79882],[110.40629,-7.79586],[110.40588,-7.79395],[110.40561,-7.79339],[110.40468,-7.79256],[110.40363,-7.79196],[110.40211,-7.79142],[110.40156,-7.79091],[110.40136,-7.79056],[110.40111,-7.78967],[110.40104,-7.78799],[110.40081,-7.78664],[110.40054,-7.78599],[110.39971,-7.78486],[110.39954,-7.78435],[110.39946,-7.78349],[110.39934,-7.7831],[110.39821,-7.78141],[110.39596,-7.77894],[110.39404,-7.77705],[110.39241,-7.77561],[110.39054,-7.7743],[110.38861,-7.77361],[110.38756,-7.77294],[110.38691,-7.77214],[110.38674,-7.77174],[110.38666,-7.77114],[110.38679,-7.77059],[110.38721,-7.77036],[110.38751,-7.76969],[110.38831,-7.76609],[110.38851,-7.76571],[110.3888,-7.7656],[110.38899,-7.76526],[110.38919,-7.76346],[110.38933,-7.76327],[110.3896,-7.76317],[110.38974,-7.76286],[110.38991,-7.76054],[110.39016,-7.75979],[110.39036,-7.75949],[110.39091,-7.75904],[110.39204,-7.75864],[110.39301,-7.75789],[110.39354,-7.75714],[110.39464,-7.75481],[110.3949,-7.7545],[110.3952,-7.75432],[110.39539,-7.75331],[110.39549,-7.74959],[110.39571,-7.74779],[110.39599,-7.74709],[110.39655,-7.74659],[110.39673,-7.74629],[110.39704,-7.74539],[110.39775,-7.74085],[110.3982,-7.7392],[110.39856,-7.73854],[110.39956,-7.73779],[110.40036,-7.73764],[110.40116,-7.73789],[110.40196,-7.73854],[110.40225,-7.73939],[110.4024,-7.74179],[110.40215,-7.74679],[110.40219,-7.74964],[110.4024,-7.75079],[110.40293,-7.75164],[110.40314,-7.75254],[110.40318,-7.75464],[110.40286,-7.75929],[110.40294,-7.75991],[110.40328,-7.76015],[110.40339,-7.76041],[110.40349,-7.76167],[110.40371,-7.76246],[110.40436,-7.76334],[110.40519,-7.76379],[110.40593,-7.76396],[110.40681,-7.76404],[110.40824,-7.76392],[110.40944,-7.76347],[110.41011,-7.76299],[110.41094,-7.76194],[110.41136,-7.76099],[110.41169,-7.75984],[110.41231,-7.75656],[110.41251,-7.75612],[110.4128,-7.756],[110.41294,-7.75581],[110.41314,-7.75401],[110.41333,-7.75367],[110.4136,-7.75357],[110.41374,-7.75326],[110.41385,-7.75232],[110.41383,-7.75091],[110.41349,-7.74964],[110.41308,-7.74891],[110.41226,-7.74787],[110.41191,-7.74671],[110.41176,-7.74412],[110.41206,-7.73854],[110.41199,-7.73779],[110.41191,-7.73764],[110.41165,-7.73749],[110.41154,-7.73714],[110.41135,-7.73511],[110.4109,-7.73421],[110.40984,-7.73331],[110.40916,-7.73249],[110.40884,-7.73181],[110.40831,-7.73014],[110.40811,-7.72979],[110.40781,-7.72964],[110.40761,-7.72937],[110.40711,-7.72719],[110.40695,-7.72585],[110.40694,-7.72476],[110.4072,-7.7236],[110.40811,-7.72234],[110.40841,-7.72101],[110.40879,-7.7206],[110.40936,-7.72022],[110.40976,-7.71971],[110.41036,-7.71847],[110.41136,-7.71591],[110.41176,-7.71527],[110.41256,-7.71462],[110.41296,-7.71411],[110.41356,-7.71287],[110.41464,-7.71009],[110.4149,-7.70971],[110.4152,-7.7096],[110.41534,-7.70941],[110.41554,-7.70761],[110.41573,-7.70727],[110.416,-7.7072],[110.41614,-7.70701],[110.41626,-7.70589],[110.41611,-7.70525],[110.41576,-7.70456],[110.41486,-7.70344],[110.41406,-7.70269],[110.41326,-7.70214],[110.41246,-7.70179],[110.41126,-7.70164]]]]}}]}