{"type":"FeatureCollection","attribution":"© OpenStreetMap contributors (ODbL)","features":[{"type":"Feature","properties":{"name":"Sungai Tulang Bawang","rank":1},"geometry":{"type":"LineString","coordinates":[[105.13905,-4.43805],[105.14057,-4.44019],[105.14206,-4.44576],[105.14301,-4.44676],[105.14707,-4.44742],[105.14571,-4.45191],[105.1473,-4.45379],[105.15203,-4.45437],[105.15517,-4.45663],[105.15739,-4.45715],[105.16046,-4.45602],[105.16336,-4.45614],[105.1664,-4.45537],[105.1702,-4.45181],[105.17104,-4.45181],[105.17154,-4.45238],[105.17123,-4.45787],[105.17306,-4.45876],[105.17504,-4.45851],[105.18048,-4.45631],[105.18189,-4.45635],[105.18481,-4.45813],[105.18612,-4.45819],[105.18761,-4.45782],[105.18942,-4.45555],[105.19079,-4.45478],[105.1942,-4.45478],[105.20475,-4.46136],[105.2104,-4.46413],[105.21205,-4.46403],[105.21449,-4.462],[105.21714,-4.45079],[105.21924,-4.44833],[105.22167,-4.44789],[105.22803,-4.45337],[105.22954,-4.45635],[105.2304,-4.46044],[105.23187,-4.46228],[105.23399,-4.46239],[105.23674,-4.4603],[105.23858,-4.46026],[105.24159,-4.46658],[105.24248,-4.47153],[105.24438,-4.4726],[105.24732,-4.47202],[105.24935,-4.47097],[105.2519,-4.46917],[105.25333,-4.46729],[105.25654,-4.45905],[105.25995,-4.45222],[105.26503,-4.44657],[105.26652,-4.44403],[105.26705,-4.44101],[105.26648,-4.43733],[105.26706,-4.43637],[105.27502,-4.43668],[105.27659,-4.43793],[105.27858,-4.44195],[105.27993,-4.44348],[105.2886,-4.44789],[105.29079,-4.44696],[105.29278,-4.44436],[105.29417,-4.44081],[105.29505,-4.43552],[105.29594,-4.43396],[105.30242,-4.43165],[105.30593,-4.43238],[105.3091,-4.43583],[105.31613,-4.44188]]}},{"type":"Feature","properties":{"name":"Sungai Tulang Bawang","rank":1},"geometry":{"type":"LineString","coordinates":[[105.46546,-4.34349],[105.46879,-4.34575],[105.47372,-4.34564],[105.47555,-4.34469],[105.48085,-4.33914],[105.48527,-4.33565],[105.48919,-4.33409],[105.49328,-4.33524],[105.49647,-4.3385],[105.49756,-4.34085],[105.49898,-4.36348],[105.50033,-4.36718],[105.50183,-4.36847],[105.50334,-4.36887],[105.50619,-4.36855],[105.50852,-4.36721],[105.51312,-4.36242],[105.51638,-4.36112],[105.52294,-4.3611],[105.5284,-4.36239],[105.53264,-4.36651],[105.53834,-4.37851],[105.54618,-4.39297],[105.54855,-4.39456],[105.55449,-4.39184],[105.55866,-4.38902],[105.56092,-4.38677],[105.56311,-4.38293],[105.56437,-4.37571],[105.56595,-4.37429],[105.56791,-4.3744],[105.57092,-4.37579],[105.57236,-4.37798],[105.57349,-4.38198],[105.57518,-4.38409],[105.57821,-4.38383],[105.58574,-4.37962],[105.58691,-4.3785],[105.58864,-4.37523],[105.58986,-4.36941],[105.59088,-4.36746],[105.59586,-4.36241],[105.59789,-4.35731],[105.60012,-4.35446],[105.60369,-4.35394],[105.60502,-4.35456],[105.60631,-4.3555],[105.61169,-4.36269]]}},{"type":"Feature","properties":{"name":"Sungai Tulang Bawang","rank":1},"geometry":{"type":"LineString","coordinates":[[105.73021,-4.31768],[105.73161,-4.31103],[105.73343,-4.2972],[105.7346,-4.29389],[105.73679,-4.29086],[105.73998,-4.28851],[105.74355,-4.2878],[105.7468,-4.28791],[105.75265,-4.28864],[105.75695,-4.29018],[105.76071,-4.29273],[105.7705,-4.30154],[105.77394,-4.30627],[105.7779,-4.3155],[105.77923,-4.31716],[105.78486,-4.32104],[105.78814,-4.32514],[105.79339,-4.33881],[105.79572,-4.34827],[105.79734,-4.35164],[105.79944,-4.35419],[105.81527,-4.3664],[105.81788,-4.37012],[105.82243,-4.38663],[105.82286,-4.39785],[105.82385,-4.4017],[105.825,-4.40377],[105.82749,-4.4051],[105.83022,-4.40576],[105.85295,-4.40619]]}},{"type":"Feature","properties":{"name":"","rank":3},"geometry":{"type":"LineString","coordinates":[[105.865,-4.6825],[105.85268,-4.67737],[105.84968,-4.67197],[105.85223,-4.66044],[105.85155,-4.6507],[105.85309,-4.64798],[105.85552,-4.63218],[105.84599,-4.63225],[105.84301,-4.63078],[105.84064,-4.62786],[105.83945,-4.62235],[105.83677,-4.62014],[105.83354,-4.62118],[105.83196,-4.63263],[105.82921,-4.63965],[105.81855,-4.64938],[105.80808,-4.65475],[105.80248,-4.65358],[105.79885,-4.64466],[105.79025,-4.63631],[105.782,-4.63458],[105.78197,-4.63324],[105.78823,-4.63388],[105.79168,-4.63596],[105.79979,-4.64381],[105.80252,-4.65066],[105.80656,-4.65322],[105.81451,-4.64995],[105.82684,-4.63948],[105.82973,-4.63073],[105.8303,-4.62257],[105.83383,-4.61859],[105.83745,-4.61843],[105.8402,-4.62014],[105.84363,-4.62784],[105.84655,-4.63024],[105.85346,-4.62824],[105.85754,-4.6299],[105.8596,-4.63229],[105.86063,-4.64786],[105.86269,-4.65043],[105.86269,-4.65471],[105.86046,-4.65932],[105.8532,-4.66593],[105.85229,-4.67142],[105.85457,-4.67592],[105.86908,-4.68152],[105.87088,-4.68199],[105.8746,-4.67973],[105.87342,-4.68502],[105.865,-4.6825]]}},{"type":"Feature","properties":{"name":"Sungai Mesuji","rank":2},"geometry":{"type":"LineString","coordinates":[[105.72996,-4.13466],[105.72751,-4.13241],[105.72385,-4.13175],[105.71207,-4.13917],[105.70649,-4.14032],[105.69875,-4.13673],[105.69583,-4.13137],[105.69978,-4.13105],[105.70178,-4.13399],[105.70403,-4.13544],[105.70991,-4.13679],[105.72094,-4.12916],[105.7289,-4.12913],[105.73466,-4.13386],[105.73986,-4.14151],[105.74347,-4.14324],[105.74525,-4.14284],[105.7537,-4.13731],[105.76587,-4.13285],[105.76763,-4.13109],[105.7681,-4.12913],[105.7657,-4.12069],[105.76759,-4.11504],[105.76999,-4.11179],[105.77308,-4.11008],[105.77566,-4.11008],[105.77995,-4.11128],[105.77995,-4.11265],[105.78802,-4.11521],[105.79008,-4.11761],[105.80793,-4.12189],[105.81256,-4.12514],[105.82097,-4.13696],[105.82325,-4.14223],[105.82441,-4.1462],[105.82463,-4.15794],[105.81811,-4.15867],[105.81418,-4.14502],[105.81367,-4.13355],[105.80798,-4.12609],[105.8053,-4.12464],[105.7929,-4.12357],[105.78699,-4.12189],[105.77428,-4.11299],[105.77197,-4.11493],[105.77222,-4.12189],[105.77068,-4.13234],[105.76827,-4.13559],[105.76398,-4.13867],[105.74596,-4.14653],[105.74276,-4.14671],[105.73926,-4.14569],[105.73666,-4.14376],[105.72996,-4.13466]]}},{"type":"Feature","properties":{"name":"","rank":3},"geometry":{"type":"LineString","coordinates":[[105.65318,-4.09003],[105.6476,-4.08183],[105.64443,-4.06875],[105.64691,-4.06864],[105.65137,-4.08525],[105.657,-4.0896],[105.66423,-4.089],[105.66802,-4.08679],[105.67251,-4.07493],[105.6777,-4.07267],[105.68019,-4.07326],[105.68493,-4.07763],[105.68588,-4.08133],[105.68502,-4.09484],[105.68622,-4.09706],[105.68935,-4.09858],[105.70379,-4.09822],[105.70798,-4.0998],[105.71197,-4.10528],[105.71214,-4.1123],[105.69978,-4.12505],[105.69978,-4.13105],[105.69583,-4.13137],[105.69627,-4.12587],[105.69869,-4.12104],[105.70922,-4.11128],[105.7092,-4.10552],[105.7033,-4.1009],[105.69051,-4.10177],[105.68459,-4.09939],[105.6818,-4.09116],[105.68347,-4.08234],[105.68131,-4.0766],[105.6782,-4.07528],[105.67523,-4.07583],[105.67077,-4.08688],[105.66648,-4.09073],[105.66,-4.09214],[105.65318,-4.09003]]}},{"type":"Feature","properties":{"name":"Sungai Mesuji","rank":2},"geometry":{"type":"LineString","coordinates":[[105.64781,-4.06203],[105.64519,-4.0657],[105.64588,-4.07018],[105.65069,-4.08611],[105.65275,-4.08919],[105.65704,-4.09124],[105.6627,-4.09124],[105.66682,-4.08919],[105.66957,-4.08645],[105.67214,-4.07789],[105.67472,-4.07515],[105.67764,-4.07446],[105.68107,-4.07549],[105.68468,-4.08285],[105.68347,-4.09552],[105.68622,-4.09912],[105.69034,-4.10066],[105.70373,-4.09987],[105.70682,-4.10135],[105.70957,-4.10443],[105.71077,-4.10922],[105.70957,-4.1135],[105.69807,-4.12549],[105.69881,-4.13364],[105.70187,-4.13682],[105.70603,-4.13857],[105.71042,-4.13833],[105.71987,-4.13131],[105.72553,-4.13097],[105.72999,-4.13234],[105.73789,-4.14278],[105.74098,-4.14466],[105.74544,-4.14483],[105.76673,-4.13371],[105.76965,-4.1296],[105.77016,-4.11384],[105.77325,-4.1111],[105.776,-4.1111],[105.78664,-4.11847],[105.80759,-4.12378],[105.81806,-4.1361],[105.82188,-4.1582]]}},{"type":"Feature","properties":{"name":"Way Pedada","rank":2},"geometry":{"type":"LineString","coordinates":[[105.69651,-4.27135],[105.69758,-4.27396],[105.69454,-4.27663],[105.69483,-4.27906],[105.69783,-4.27974],[105.70159,-4.27664],[105.70464,-4.27774],[105.70672,-4.28156],[105.70431,-4.2852],[105.70452,-4.28738],[105.71139,-4.29053],[105.71625,-4.29526],[105.71601,-4.2973],[105.71347,-4.29998],[105.70821,-4.30052],[105.70702,-4.3046],[105.70776,-4.30732],[105.71369,-4.31146],[105.71847,-4.31004],[105.7209,-4.31483],[105.73021,-4.31768]]}},{"type":"Feature","properties":{"name":"Way Seputih","rank":2},"geometry":{"type":"LineString","coordinates":[[105.52073,-4.65145],[105.51765,-4.64962],[105.51893,-4.64377],[105.5268,-4.63814],[105.53278,-4.63837],[105.55011,-4.63329],[105.55306,-4.62872],[105.55329,-4.6247],[105.55058,-4.6137]]}},{"type":"Feature","properties":{"name":"Way Terusan","rank":2},"geometry":{"type":"LineString","coordinates":[[105.80359,-4.58104],[105.80472,-4.58558],[105.80133,-4.59097],[105.79839,-4.59143],[105.7943,-4.58864],[105.79244,-4.5888],[105.78464,-4.59707],[105.78317,-4.60345],[105.77876,-4.60523],[105.77906,-4.61205],[105.78319,-4.61411],[105.77881,-4.62284],[105.78181,-4.62558],[105.78093,-4.63245],[105.78155,-4.63416]]}},{"type":"Feature","properties":{"name":"Way Kanan","rank":2},"geometry":{"type":"LineString","coordinates":[[105.10005,-4.40119],[105.10198,-4.40458],[105.10449,-4.40297],[105.10843,-4.40254],[105.10946,-4.40139],[105.10838,-4.39742],[105.10904,-4.39564],[105.11737,-4.40155],[105.12503,-4.39944],[105.12271,-4.4101],[105.12915,-4.41313],[105.13367,-4.40979],[105.13279,-4.41324],[105.13419,-4.41619],[105.13919,-4.41173],[105.14089,-4.40853],[105.14287,-4.40873],[105.14403,-4.41155],[105.14215,-4.41751],[105.14552,-4.42054],[105.14596,-4.4233],[105.1447,-4.42421],[105.13949,-4.42414],[105.13846,-4.42549],[105.13844,-4.4292],[105.13999,-4.43007],[105.14728,-4.42668],[105.14838,-4.42785],[105.14758,-4.42954],[105.1453,-4.4295],[105.14359,-4.43091],[105.14456,-4.43623],[105.13972,-4.43377],[105.13905,-4.43805]]}},{"type":"Feature","properties":{"name":"Way Kiri","rank":2},"geometry":{"type":"LineString","coordinates":[[105.11389,-4.4431],[105.11502,-4.44038],[105.11288,-4.43843],[105.11261,-4.4358],[105.11792,-4.43522],[105.12149,-4.43628],[105.12219,-4.43718],[105.12056,-4.44115],[105.12324,-4.44387],[105.12512,-4.45001],[105.12717,-4.45134],[105.1331,-4.44372],[105.13251,-4.43504],[105.13499,-4.43501],[105.13905,-4.43805]]}},{"type":"Feature","properties":{"name":"Way Pengubuan","rank":2},"geometry":{"type":"LineString","coordinates":[[105.38024,-4.69866],[105.3824,-4.69881],[105.38561,-4.70149],[105.38683,-4.69889],[105.38779,-4.70007],[105.38665,-4.70096],[105.38894,-4.70087],[105.39071,-4.70202],[105.39375,-4.69989],[105.39465,-4.70155],[105.39751,-4.70151],[105.39699,-4.703],[105.39907,-4.70264],[105.4008,-4.69892],[105.40264,-4.69956],[105.40364,-4.70161],[105.40413,-4.70043],[105.40525,-4.70038],[105.40893,-4.70347]]}},{"type":"Feature","properties":{"name":"Way Seputih","rank":2},"geometry":{"type":"LineString","coordinates":[[105.50588,-4.72438],[105.50567,-4.71675],[105.50149,-4.71518],[105.49901,-4.71614],[105.49913,-4.71367],[105.49695,-4.71447],[105.4955,-4.71131],[105.49465,-4.71362],[105.49452,-4.7112],[105.49748,-4.7092],[105.50028,-4.70538],[105.50229,-4.7059],[105.50296,-4.70404],[105.50403,-4.70462],[105.50396,-4.70152],[105.50482,-4.70043],[105.50617,-4.70103],[105.50705,-4.70353],[105.50978,-4.70135],[105.51075,-4.69728],[105.51255,-4.69957],[105.51391,-4.69582],[105.5156,-4.69458],[105.51849,-4.69388],[105.51854,-4.69582],[105.5194,-4.69578],[105.52145,-4.69297],[105.51926,-4.68903],[105.521,-4.68704],[105.52232,-4.68853],[105.52394,-4.68542],[105.52197,-4.68482],[105.52392,-4.68388],[105.52295,-4.68208],[105.5251,-4.68214],[105.52605,-4.68051],[105.52788,-4.67996],[105.53059,-4.6817],[105.53502,-4.68179],[105.53397,-4.68002],[105.53488,-4.67705],[105.5324,-4.672],[105.53501,-4.67271],[105.53581,-4.67015],[105.53505,-4.66835],[105.5322,-4.66702],[105.53474,-4.66571],[105.53499,-4.66452],[105.53096,-4.66352],[105.52609,-4.65845],[105.52214,-4.65939],[105.52087,-4.65667],[105.52297,-4.65325],[105.52236,-4.65194],[105.52073,-4.65145]]}},{"type":"Feature","properties":{"name":"Way Seputih","rank":2},"geometry":{"type":"LineString","coordinates":[[105.78155,-4.63416],[105.7861,-4.63407],[105.79067,-4.63604],[105.79937,-4.6445],[105.80187,-4.6512],[105.80403,-4.65349],[105.80793,-4.65402],[105.81688,-4.64932]]}},{"type":"Feature","properties":{"name":"Way Seputih","rank":2},"geometry":{"type":"LineString","coordinates":[[105.81688,-4.64932],[105.82811,-4.63955],[105.83003,-4.63506],[105.83268,-4.62077],[105.83503,-4.61909],[105.83855,-4.62007],[105.84035,-4.62187],[105.84213,-4.62793],[105.84386,-4.63021],[105.8477,-4.6313],[105.85524,-4.63008],[105.85756,-4.63329],[105.85654,-4.65362],[105.85415,-4.66266],[105.85196,-4.66587],[105.85106,-4.66929],[105.85209,-4.67466],[105.85551,-4.67754],[105.86878,-4.68238],[105.87419,-4.68242]]}},{"type":"Feature","properties":{"name":"Way Seputih","rank":2},"geometry":{"type":"LineString","coordinates":[[105.49434,-4.73978],[105.49483,-4.73991]]}},{"type":"Feature","properties":{"name":"Way Seputih","rank":2},"geometry":{"type":"LineString","coordinates":[[105.49733,-4.73988],[105.49435,-4.73616],[105.49634,-4.73705],[105.49829,-4.73643],[105.49839,-4.73513],[105.49659,-4.73424],[105.49674,-4.73276],[105.50333,-4.73349],[105.50344,-4.73245],[105.5016,-4.73093],[105.5041,-4.72906],[105.50321,-4.72485],[105.50461,-4.72334],[105.50588,-4.72438]]}},{"type":"Feature","properties":{"name":"","rank":3},"geometry":{"type":"LineString","coordinates":[[105.25077,-4.51405],[105.2576,-4.51301],[105.26132,-4.50591],[105.26354,-4.5049],[105.27109,-4.50599],[105.27774,-4.5098],[105.27982,-4.50899],[105.28221,-4.50515],[105.28614,-4.50331],[105.2968,-4.50147],[105.29876,-4.49995],[105.30001,-4.49264],[105.29661,-4.4872],[105.28723,-4.48315],[105.28307,-4.4844],[105.28052,-4.48819],[105.27844,-4.48598],[105.27764,-4.48037],[105.27893,-4.47784],[105.28167,-4.47681],[105.2931,-4.48116],[105.29846,-4.47818],[105.30038,-4.47428],[105.2997,-4.46755],[105.2958,-4.46059],[105.29617,-4.45601],[105.298,-4.45357],[105.29985,-4.45294],[105.30432,-4.4559],[105.3106,-4.45363],[105.31311,-4.45012],[105.32185,-4.44842],[105.32294,-4.45148],[105.32061,-4.45316],[105.32524,-4.45664],[105.3258,-4.45939],[105.33688,-4.46021],[105.3397,-4.4572]]}},{"type":"Feature","properties":{"name":"Way Terusan","rank":2},"geometry":{"type":"LineString","coordinates":[[105.36334,-4.53268],[105.362,-4.53291],[105.36268,-4.5317],[105.36193,-4.53054],[105.3631,-4.52834],[105.36471,-4.52703],[105.36491,-4.5281],[105.36663,-4.52849],[105.36995,-4.52596],[105.36918,-4.52142],[105.37433,-4.52102],[105.37502,-4.52207]]}},{"type":"Feature","properties":{"name":"Way Terusan","rank":2},"geometry":{"type":"LineString","coordinates":[[105.32798,-4.56811],[105.32904,-4.56896],[105.32862,-4.57006],[105.32963,-4.57043],[105.33063,-4.56715],[105.32895,-4.5674]]}},{"type":"Feature","properties":{"name":"Way Terusan","rank":2},"geometry":{"type":"LineString","coordinates":[[105.31616,-4.57746],[105.31781,-4.57749],[105.31747,-4.57847],[105.31834,-4.57839],[105.31973,-4.57533],[105.32211,-4.57767],[105.32336,-4.57245],[105.32486,-4.5744],[105.32623,-4.57324]]}},{"type":"Feature","properties":{"name":"Way Buring","rank":2},"geometry":{"type":"LineString","coordinates":[[105.13306,-4.71524],[105.13499,-4.71385],[105.13603,-4.71117],[105.13704,-4.71096],[105.1366,-4.70901],[105.13807,-4.70702],[105.13946,-4.70728],[105.14239,-4.70572],[105.14137,-4.70478],[105.14122,-4.70221],[105.14308,-4.7009],[105.14294,-4.69812],[105.14458,-4.69693],[105.14398,-4.69563],[105.14175,-4.69462],[105.14203,-4.69373],[105.14051,-4.69202],[105.14198,-4.69138],[105.14198,-4.68923],[105.14469,-4.68846],[105.14405,-4.68573],[105.14483,-4.68466],[105.14262,-4.68195],[105.14312,-4.68112],[105.14363,-4.68193],[105.14368,-4.67904]]}},{"type":"Feature","properties":{"name":"Way Terusan","rank":2},"geometry":{"type":"LineString","coordinates":[[105.10457,-4.6871],[105.10529,-4.68695],[105.10593,-4.68851],[105.10857,-4.68814],[105.10857,-4.689],[105.11111,-4.68634],[105.11209,-4.68732],[105.11415,-4.68629],[105.11599,-4.68684]]}},{"type":"Feature","properties":{"name":"Way Pedada","rank":2},"geometry":{"type":"LineString","coordinates":[[105.31595,-4.30911],[105.31772,-4.30999],[105.32183,-4.309],[105.325,-4.31122],[105.32629,-4.31438],[105.32844,-4.31399],[105.32919,-4.31126],[105.33245,-4.31045],[105.33498,-4.30856],[105.33612,-4.30416],[105.33811,-4.30307],[105.3418,-4.30363],[105.34347,-4.30223],[105.34366,-4.3004],[105.34078,-4.2979],[105.34082,-4.29695],[105.34403,-4.29329],[105.34622,-4.29366],[105.34794,-4.29244],[105.34825,-4.28673],[105.35221,-4.28566],[105.35534,-4.28796],[105.35894,-4.28599],[105.36085,-4.28337],[105.36624,-4.2825]]}},{"type":"Feature","properties":{"name":"Way Pedada","rank":2},"geometry":{"type":"LineString","coordinates":[[105.27119,-4.32333],[105.27288,-4.3251],[105.27432,-4.32441],[105.27348,-4.32381],[105.27635,-4.32283],[105.27752,-4.32331],[105.27755,-4.32215],[105.28287,-4.32372],[105.284,-4.32239],[105.28554,-4.32255],[105.28521,-4.32192],[105.28644,-4.32098],[105.28968,-4.32052],[105.29142,-4.31897],[105.29279,-4.31883],[105.29379,-4.31991],[105.29375,-4.31884],[105.2977,-4.31598],[105.29756,-4.31461],[105.2992,-4.3137],[105.29877,-4.31095],[105.30058,-4.31105],[105.30081,-4.30858],[105.30239,-4.30785]]}},{"type":"Feature","properties":{"name":"Way Pedada","rank":2},"geometry":{"type":"LineString","coordinates":[[105.3051,-4.30929],[105.30824,-4.31453],[105.31025,-4.31202],[105.31077,-4.30973],[105.31214,-4.30921],[105.31384,-4.31033],[105.31595,-4.30911]]}},{"type":"Feature","properties":{"name":"Way Pedada","rank":2},"geometry":{"type":"LineString","coordinates":[[105.30239,-4.30785],[105.3051,-4.30929]]}},{"type":"Feature","properties":{"name":"Way Pedada","rank":2},"geometry":{"type":"LineString","coordinates":[[105.23514,-4.31657],[105.23532,-4.31575],[105.23741,-4.31602],[105.23986,-4.3188],[105.2426,-4.31698],[105.24422,-4.31955],[105.24553,-4.31895],[105.24586,-4.31956],[105.24834,-4.31769],[105.24907,-4.31848],[105.24977,-4.31768],[105.25295,-4.31753],[105.25312,-4.31877],[105.25382,-4.31794]]}},{"type":"Feature","properties":{"name":"Way Pedada","rank":2},"geometry":{"type":"LineString","coordinates":[[105.21457,-4.30304],[105.21594,-4.30352],[105.21529,-4.30477],[105.21688,-4.30468],[105.21798,-4.30727],[105.21914,-4.30599],[105.22052,-4.30679],[105.22091,-4.30838],[105.22116,-4.30702],[105.22271,-4.30824],[105.22507,-4.30728],[105.22683,-4.30841],[105.23015,-4.30682],[105.23083,-4.30904],[105.22928,-4.31021],[105.23099,-4.31151],[105.23121,-4.31573],[105.23514,-4.31657]]}},{"type":"Feature","properties":{"name":"","rank":3},"geometry":{"type":"LineString","coordinates":[[105.89185,-4.43602],[105.89043,-4.43872],[105.89149,-4.44237],[105.89039,-4.44461],[105.88846,-4.44389],[105.88638,-4.44781],[105.88213,-4.44873],[105.87448,-4.45546]]}},{"type":"Feature","properties":{"name":"Way Terusan","rank":2},"geometry":{"type":"LineString","coordinates":[[105.10045,-4.6988],[105.10197,-4.69831],[105.10213,-4.69687],[105.10378,-4.69596],[105.10199,-4.69304],[105.1057,-4.69199],[105.10303,-4.68805],[105.10296,-4.68726],[105.10457,-4.6871]]}},{"type":"Feature","properties":{"name":"Way Terusan","rank":2},"geometry":{"type":"LineString","coordinates":[[105.11599,-4.68684],[105.11733,-4.68754],[105.11793,-4.6867],[105.11954,-4.68804],[105.12102,-4.68595]]}},{"type":"Feature","properties":{"name":"Way Terusan","rank":2},"geometry":{"type":"LineString","coordinates":[[105.12102,-4.68595],[105.12185,-4.68561],[105.1229,-4.68792],[105.12558,-4.687],[105.12831,-4.68794],[105.12984,-4.68579],[105.13337,-4.68598],[105.13445,-4.68735],[105.13601,-4.68706],[105.1366,-4.68457]]}},{"type":"Feature","properties":{"name":"Way Terusan","rank":2},"geometry":{"type":"LineString","coordinates":[[105.1366,-4.68457],[105.14002,-4.6825],[105.13805,-4.67964],[105.14078,-4.67847],[105.14286,-4.68037],[105.14297,-4.67893],[105.14368,-4.67904]]}},{"type":"Feature","properties":{"name":"Way Terusan","rank":2},"geometry":{"type":"LineString","coordinates":[[105.14368,-4.67904],[105.14477,-4.67629],[105.14328,-4.67651],[105.14353,-4.6755],[105.14771,-4.67692],[105.14866,-4.67647],[105.14931,-4.6774],[105.15083,-4.67496],[105.15158,-4.67562],[105.15226,-4.67471],[105.15522,-4.6771],[105.1577,-4.67358],[105.15897,-4.67325],[105.15928,-4.67408],[105.16075,-4.67281],[105.16215,-4.66954]]}},{"type":"Feature","properties":{"name":"Way Terusan","rank":2},"geometry":{"type":"LineString","coordinates":[[105.22348,-4.64121],[105.22373,-4.64251],[105.22532,-4.64221],[105.22682,-4.63951],[105.22818,-4.64308]]}},{"type":"Feature","properties":{"name":"Way Terusan","rank":2},"geometry":{"type":"LineString","coordinates":[[105.21281,-4.64239],[105.21335,-4.64551],[105.21442,-4.64476],[105.21585,-4.64559],[105.21693,-4.6482],[105.21885,-4.64662],[105.21809,-4.64566],[105.22208,-4.64567],[105.2225,-4.64214],[105.22348,-4.64121]]}},{"type":"Feature","properties":{"name":"Way Terusan","rank":2},"geometry":{"type":"LineString","coordinates":[[105.16236,-4.66804],[105.16402,-4.66714],[105.16699,-4.66799],[105.16767,-4.66948],[105.16921,-4.66632],[105.17076,-4.66584],[105.17024,-4.66475],[105.17533,-4.66538]]}},{"type":"Feature","properties":{"name":"Way Terusan","rank":2},"geometry":{"type":"LineString","coordinates":[[105.22818,-4.64308],[105.2322,-4.64182],[105.23399,-4.64016],[105.24037,-4.6412]]}},{"type":"Feature","properties":{"name":"Way Terusan","rank":2},"geometry":{"type":"LineString","coordinates":[[105.17533,-4.66538],[105.1767,-4.66404],[105.17605,-4.66281],[105.1821,-4.66158],[105.19041,-4.66297],[105.19065,-4.65913],[105.19306,-4.65929],[105.19436,-4.65504],[105.19244,-4.65256],[105.19451,-4.65109],[105.19543,-4.64886],[105.19658,-4.64871],[105.19776,-4.65012],[105.19965,-4.64669],[105.20279,-4.64688],[105.20348,-4.64512],[105.21281,-4.64239]]}},{"type":"Feature","properties":{"name":"Way Terusan","rank":2},"geometry":{"type":"LineString","coordinates":[[105.16215,-4.66954],[105.16264,-4.67004],[105.1634,-4.66885],[105.16236,-4.66804]]}},{"type":"Feature","properties":{"name":"Way Terusan","rank":2},"geometry":{"type":"LineString","coordinates":[[105.32623,-4.57324],[105.3271,-4.57437],[105.32637,-4.57529],[105.32796,-4.57561],[105.32853,-4.57207],[105.32735,-4.57089],[105.32798,-4.56811]]}},{"type":"Feature","properties":{"name":"Way Terusan","rank":2},"geometry":{"type":"LineString","coordinates":[[105.30997,-4.58824],[105.31212,-4.58534],[105.31122,-4.58511],[105.31205,-4.58362],[105.31159,-4.58245],[105.31255,-4.58173],[105.31194,-4.57975],[105.31331,-4.57853],[105.31529,-4.57869],[105.31616,-4.57746]]}},{"type":"Feature","properties":{"name":"Way Terusan","rank":2},"geometry":{"type":"LineString","coordinates":[[105.30562,-4.59309],[105.30548,-4.59477],[105.30965,-4.59276],[105.31033,-4.58991],[105.31165,-4.58921],[105.31007,-4.58899],[105.30997,-4.58824]]}},{"type":"Feature","properties":{"name":"Way Terusan","rank":2},"geometry":{"type":"LineString","coordinates":[[105.30371,-4.60452],[105.30284,-4.60192],[105.30444,-4.59984],[105.3029,-4.60045],[105.30133,-4.59763],[105.3029,-4.5962],[105.3023,-4.59475],[105.30387,-4.59485],[105.30562,-4.59309]]}},{"type":"Feature","properties":{"name":"Way Terusan","rank":2},"geometry":{"type":"LineString","coordinates":[[105.29621,-4.6073],[105.29939,-4.60831],[105.30017,-4.60784],[105.29907,-4.60623],[105.29931,-4.60492],[105.30371,-4.60452]]}},{"type":"Feature","properties":{"name":"Way Terusan","rank":2},"geometry":{"type":"LineString","coordinates":[[105.27159,-4.62446],[105.2728,-4.62586],[105.27396,-4.62486],[105.27448,-4.62131],[105.27537,-4.62059],[105.27773,-4.62062],[105.27844,-4.62188],[105.28233,-4.61987],[105.28608,-4.62231],[105.28676,-4.62152],[105.286,-4.61891],[105.28753,-4.61896],[105.28821,-4.61718],[105.28573,-4.61755],[105.28535,-4.61537],[105.28897,-4.61366],[105.29148,-4.61385],[105.29155,-4.61565],[105.29318,-4.61696],[105.29364,-4.61344],[105.29674,-4.61276],[105.29514,-4.61125],[105.29646,-4.61079],[105.29621,-4.6073]]}},{"type":"Feature","properties":{"name":"Way Terusan","rank":2},"geometry":{"type":"LineString","coordinates":[[105.24037,-4.6412],[105.24281,-4.63896],[105.24432,-4.64059],[105.24661,-4.63947],[105.24697,-4.6388],[105.24558,-4.63804],[105.24737,-4.63623],[105.25091,-4.63757],[105.25371,-4.63701],[105.25467,-4.63547],[105.25703,-4.6364],[105.26194,-4.63557],[105.2636,-4.6315],[105.26016,-4.6293],[105.26144,-4.62654],[105.26321,-4.62667],[105.26416,-4.62558],[105.26415,-4.62449],[105.26306,-4.62452],[105.26243,-4.62321],[105.26304,-4.62246],[105.2652,-4.62216],[105.26512,-4.62347],[105.26753,-4.6232],[105.26892,-4.62402],[105.2693,-4.62178],[105.27199,-4.62263],[105.27105,-4.62394],[105.27159,-4.62446]]}},{"type":"Feature","properties":{"name":"Way Terusan","rank":2},"geometry":{"type":"LineString","coordinates":[[105.32798,-4.56811],[105.32895,-4.5674]]}},{"type":"Feature","properties":{"name":"Way Terusan","rank":2},"geometry":{"type":"LineString","coordinates":[[105.32895,-4.5674],[105.32976,-4.56559],[105.33132,-4.56694],[105.33355,-4.56519],[105.33484,-4.56582],[105.33766,-4.56395],[105.33846,-4.56091],[105.33958,-4.56029],[105.33771,-4.55846],[105.33882,-4.55791],[105.3384,-4.55604],[105.33989,-4.55292],[105.3421,-4.55266],[105.34506,-4.55047],[105.34615,-4.55146],[105.34709,-4.55023],[105.3466,-4.54894],[105.34816,-4.54821],[105.35039,-4.54823],[105.34982,-4.54979],[105.35333,-4.55063],[105.35482,-4.54889],[105.35438,-4.54786],[105.35636,-4.54651],[105.35376,-4.53981]]}},{"type":"Feature","properties":{"name":"Way Terusan","rank":2},"geometry":{"type":"LineString","coordinates":[[105.35376,-4.53981],[105.35351,-4.53891],[105.35506,-4.53768],[105.35808,-4.53902],[105.35825,-4.53776],[105.3614,-4.53589],[105.36334,-4.53268]]}},{"type":"Feature","properties":{"name":"Way Terusan","rank":2},"geometry":{"type":"LineString","coordinates":[[105.37502,-4.52207],[105.37789,-4.51836],[105.37859,-4.51888],[105.38118,-4.51694],[105.3836,-4.51703],[105.38506,-4.51608],[105.38568,-4.51742],[105.38709,-4.51766]]}},{"type":"Feature","properties":{"name":"Way Terusan","rank":2},"geometry":{"type":"LineString","coordinates":[[105.38709,-4.51766],[105.3887,-4.51772],[105.39006,-4.51551]]}},{"type":"Feature","properties":{"name":"Way Terusan","rank":2},"geometry":{"type":"LineString","coordinates":[[105.39006,-4.51551],[105.38848,-4.51553],[105.38833,-4.51465],[105.39538,-4.51533],[105.39852,-4.51277]]}},{"type":"Feature","properties":{"name":"Way Terusan","rank":2},"geometry":{"type":"LineString","coordinates":[[105.39852,-4.51277],[105.39889,-4.51454],[105.40308,-4.51191],[105.40394,-4.51322],[105.40358,-4.51518],[105.40567,-4.51466]]}},{"type":"Feature","properties":{"name":"Way Terusan","rank":2},"geometry":{"type":"LineString","coordinates":[[105.40567,-4.51466],[105.407,-4.51461],[105.40657,-4.51551],[105.40767,-4.51551],[105.40814,-4.51789]]}},{"type":"Feature","properties":{"name":"Way Terusan","rank":2},"geometry":{"type":"LineString","coordinates":[[105.39852,-4.51277],[105.39944,-4.5107],[105.40178,-4.51211]]}},{"type":"Feature","properties":{"name":"Way Terusan","rank":2},"geometry":{"type":"LineString","coordinates":[[105.40814,-4.51789],[105.41238,-4.51834],[105.41453,-4.51074],[105.41706,-4.51025]]}},{"type":"Feature","properties":{"name":"Way Terusan","rank":2},"geometry":{"type":"LineString","coordinates":[[105.40567,-4.51466],[105.40667,-4.51111],[105.41004,-4.51113],[105.41026,-4.5131],[105.40814,-4.51789]]}},{"type":"Feature","properties":{"name":"Way Terusan","rank":2},"geometry":{"type":"LineString","coordinates":[[105.41706,-4.51025],[105.41934,-4.50759],[105.42392,-4.50979]]}},{"type":"Feature","properties":{"name":"Way Terusan","rank":2},"geometry":{"type":"LineString","coordinates":[[105.42392,-4.50979],[105.42661,-4.50728],[105.42942,-4.50824],[105.43234,-4.50653],[105.43363,-4.50705]]}},{"type":"Feature","properties":{"name":"Way Terusan","rank":2},"geometry":{"type":"LineString","coordinates":[[105.44532,-4.50156],[105.44771,-4.49839],[105.44842,-4.49543],[105.44987,-4.49431]]}},{"type":"Feature","properties":{"name":"Way Terusan","rank":2},"geometry":{"type":"LineString","coordinates":[[105.46297,-4.49402],[105.46533,-4.49189],[105.46875,-4.49137]]}},{"type":"Feature","properties":{"name":"Way Terusan","rank":2},"geometry":{"type":"LineString","coordinates":[[105.47796,-4.49689],[105.48215,-4.49192],[105.48265,-4.48738],[105.48383,-4.48719],[105.48726,-4.48926],[105.48841,-4.48754],[105.48902,-4.48341],[105.49112,-4.48253],[105.49329,-4.48341],[105.49565,-4.49355],[105.49766,-4.49496],[105.49924,-4.49446],[105.50475,-4.49559]]}},{"type":"Feature","properties":{"name":"Way Terusan","rank":2},"geometry":{"type":"LineString","coordinates":[[105.46875,-4.49137],[105.46863,-4.49237],[105.47007,-4.49263],[105.47106,-4.49412],[105.47186,-4.48986],[105.47496,-4.49105],[105.47367,-4.49182],[105.4745,-4.4935],[105.47334,-4.49545],[105.47796,-4.49689]]}},{"type":"Feature","properties":{"name":"Way Terusan","rank":2},"geometry":{"type":"LineString","coordinates":[[105.58531,-4.51834],[105.58774,-4.51516],[105.59138,-4.51366],[105.59588,-4.51361],[105.59928,-4.51581],[105.60207,-4.5216],[105.60706,-4.52174]]}},{"type":"Feature","properties":{"name":"Way Terusan","rank":2},"geometry":{"type":"LineString","coordinates":[[105.60706,-4.52174],[105.61184,-4.51829],[105.62082,-4.51766],[105.62679,-4.50098],[105.62714,-4.48745],[105.63301,-4.48193],[105.63811,-4.48271],[105.64272,-4.48098],[105.64622,-4.48507],[105.64613,-4.49063],[105.64546,-4.49538],[105.64181,-4.49846],[105.64122,-4.50139],[105.64272,-4.50539],[105.64573,-4.50892],[105.65462,-4.50899],[105.65818,-4.50673],[105.66067,-4.5006],[105.66682,-4.50134],[105.67047,-4.49982],[105.67327,-4.49693],[105.67469,-4.49279],[105.67389,-4.48624],[105.68013,-4.4849],[105.69305,-4.49074],[105.69735,-4.49542],[105.69883,-4.50242],[105.69831,-4.50481],[105.69731,-4.50674],[105.69308,-4.5093],[105.6926,-4.51096],[105.69355,-4.51348],[105.6986,-4.51499]]}},{"type":"Feature","properties":{"name":"Way Terusan","rank":2},"geometry":{"type":"LineString","coordinates":[[105.6986,-4.51499],[105.70618,-4.5182],[105.70728,-4.52084],[105.70728,-4.52427]]}},{"type":"Feature","properties":{"name":"Way Terusan","rank":2},"geometry":{"type":"LineString","coordinates":[[105.72012,-4.53103],[105.72318,-4.52786],[105.72548,-4.52878],[105.72669,-4.53054]]}},{"type":"Feature","properties":{"name":"Way Terusan","rank":2},"geometry":{"type":"LineString","coordinates":[[105.70728,-4.52427],[105.70781,-4.52774],[105.71288,-4.53103],[105.72012,-4.53103]]}},{"type":"Feature","properties":{"name":"Way Terusan","rank":2},"geometry":{"type":"LineString","coordinates":[[105.76809,-4.54695],[105.77145,-4.55322],[105.78281,-4.55666],[105.78458,-4.55582],[105.78625,-4.55013],[105.78972,-4.54954],[105.79661,-4.55568],[105.79927,-4.55964]]}},{"type":"Feature","properties":{"name":"Way Terusan","rank":2},"geometry":{"type":"LineString","coordinates":[[105.79927,-4.55964],[105.79995,-4.56964],[105.79907,-4.57133],[105.79448,-4.57298],[105.79339,-4.57645],[105.79358,-4.57959],[105.79561,-4.58126],[105.80017,-4.57971],[105.80359,-4.58104]]}},{"type":"Feature","properties":{"name":"Way Terusan","rank":2},"geometry":{"type":"LineString","coordinates":[[105.72669,-4.53054],[105.72867,-4.53691],[105.73119,-4.5373],[105.73793,-4.53549],[105.74527,-4.52898],[105.74502,-4.52237],[105.74872,-4.52101],[105.75237,-4.52161],[105.75439,-4.52364],[105.7562,-4.52971],[105.75876,-4.53213],[105.76103,-4.5323],[105.765,-4.52926],[105.76822,-4.52837],[105.77074,-4.52909],[105.77314,-4.53221],[105.7738,-4.53656],[105.76772,-4.54185],[105.76809,-4.54695]]}},{"type":"Feature","properties":{"name":"Way Terusan","rank":2},"geometry":{"type":"LineString","coordinates":[[105.50475,-4.49559],[105.50735,-4.49194],[105.51038,-4.49167],[105.51357,-4.49681],[105.52054,-4.49729],[105.52234,-4.49954],[105.52246,-4.5045],[105.52415,-4.50732],[105.52837,-4.50805],[105.53102,-4.50728],[105.53503,-4.5091],[105.53688,-4.51292],[105.53348,-4.51894],[105.53353,-4.52023],[105.53491,-4.52097],[105.53672,-4.52132],[105.54123,-4.51976],[105.5502,-4.5209],[105.55493,-4.52002],[105.56131,-4.51707],[105.57118,-4.51945],[105.57333,-4.52212],[105.57364,-4.53058],[105.57712,-4.53476],[105.58174,-4.53537],[105.58398,-4.53275],[105.58519,-4.52738],[105.58531,-4.51834]]}},{"type":"Feature","properties":{"name":"Way Terusan","rank":2},"geometry":{"type":"LineString","coordinates":[[105.46156,-4.49451],[105.46449,-4.49687],[105.46566,-4.49469],[105.46297,-4.49402]]}},{"type":"Feature","properties":{"name":"Way Terusan","rank":2},"geometry":{"type":"LineString","coordinates":[[105.46156,-4.49451],[105.46297,-4.49402]]}},{"type":"Feature","properties":{"name":"Way Terusan","rank":2},"geometry":{"type":"LineString","coordinates":[[105.45644,-4.49254],[105.45672,-4.49192],[105.45828,-4.49243],[105.46156,-4.49451]]}},{"type":"Feature","properties":{"name":"Way Terusan","rank":2},"geometry":{"type":"LineString","coordinates":[[105.44987,-4.49431],[105.45173,-4.49258],[105.45644,-4.49254]]}},{"type":"Feature","properties":{"name":"Way Terusan","rank":2},"geometry":{"type":"LineString","coordinates":[[105.43363,-4.50705],[105.43698,-4.50159],[105.44099,-4.50302],[105.44355,-4.50287],[105.44532,-4.50156]]}},{"type":"Feature","properties":{"name":"Way Pengubuan","rank":2},"geometry":{"type":"LineString","coordinates":[[105.34013,-4.73965],[105.33851,-4.7355],[105.34027,-4.73416],[105.34045,-4.73549],[105.34195,-4.73599],[105.34348,-4.73424],[105.34341,-4.73343],[105.34261,-4.73412],[105.34148,-4.7336],[105.34235,-4.73217],[105.34153,-4.72855],[105.34425,-4.72693],[105.34436,-4.72832],[105.34651,-4.72842]]}},{"type":"Feature","properties":{"name":"Way Pengubuan","rank":2},"geometry":{"type":"LineString","coordinates":[[105.34651,-4.72842],[105.34619,-4.72738],[105.347,-4.72685],[105.34834,-4.72845],[105.34971,-4.72744],[105.35139,-4.72849]]}},{"type":"Feature","properties":{"name":"Way Pengubuan","rank":2},"geometry":{"type":"LineString","coordinates":[[105.34612,-4.72855],[105.34789,-4.72931],[105.34651,-4.72842]]}},{"type":"Feature","properties":{"name":"Way Pengubuan","rank":2},"geometry":{"type":"LineString","coordinates":[[105.35139,-4.72849],[105.35102,-4.72541],[105.34845,-4.72362],[105.35126,-4.72186],[105.34969,-4.72157],[105.35125,-4.71932],[105.35275,-4.71955],[105.35405,-4.71764],[105.35481,-4.71779],[105.35369,-4.71437],[105.35568,-4.71284],[105.35514,-4.71112],[105.3566,-4.71099]]}},{"type":"Feature","properties":{"name":"Way Pengubuan","rank":2},"geometry":{"type":"LineString","coordinates":[[105.3566,-4.71099],[105.35816,-4.70919],[105.3565,-4.70921],[105.35633,-4.70845],[105.35865,-4.70674],[105.35726,-4.70629],[105.36121,-4.70513],[105.36149,-4.70346],[105.36288,-4.70306],[105.36216,-4.70166],[105.36504,-4.69796],[105.36232,-4.69785]]}},{"type":"Feature","properties":{"name":"Way Pengubuan","rank":2},"geometry":{"type":"LineString","coordinates":[[105.35609,-4.71112],[105.35655,-4.71241],[105.35759,-4.71241],[105.35794,-4.71177],[105.3566,-4.71099]]}},{"type":"Feature","properties":{"name":"Way Pengubuan","rank":2},"geometry":{"type":"LineString","coordinates":[[105.36232,-4.69785],[105.36383,-4.69568],[105.37053,-4.69523],[105.375,-4.69858],[105.37737,-4.6981],[105.3753,-4.70022],[105.38218,-4.70001],[105.38024,-4.69866]]}},{"type":"Feature","properties":{"name":"Way Pengubuan","rank":2},"geometry":{"type":"LineString","coordinates":[[105.40893,-4.70347],[105.40948,-4.70382],[105.41043,-4.70218],[105.41105,-4.69567],[105.41671,-4.69767],[105.41807,-4.69924],[105.42027,-4.69386],[105.4219,-4.6949],[105.42062,-4.69579],[105.42093,-4.6977],[105.42266,-4.69688],[105.42291,-4.69489],[105.42535,-4.69616]]}},{"type":"Feature","properties":{"name":"Way Pengubuan","rank":2},"geometry":{"type":"LineString","coordinates":[[105.42535,-4.69616],[105.42267,-4.69124],[105.42601,-4.6903],[105.42787,-4.6915],[105.42865,-4.68833],[105.43018,-4.68929],[105.43194,-4.68772]]}},{"type":"Feature","properties":{"name":"Way Pengubuan","rank":2},"geometry":{"type":"LineString","coordinates":[[105.43194,-4.68772],[105.43042,-4.68708],[105.43091,-4.68588],[105.43309,-4.68508],[105.43286,-4.68703]]}},{"type":"Feature","properties":{"name":"Way Pengubuan","rank":2},"geometry":{"type":"LineString","coordinates":[[105.43286,-4.68703],[105.43429,-4.68797],[105.43514,-4.68752],[105.43447,-4.68275],[105.43733,-4.68328],[105.43742,-4.68473],[105.43805,-4.68464],[105.43913,-4.68148],[105.43843,-4.67886],[105.44072,-4.67735],[105.43899,-4.67637],[105.43728,-4.67706],[105.43741,-4.6759],[105.44382,-4.67165],[105.44541,-4.67125],[105.4469,-4.67235]]}},{"type":"Feature","properties":{"name":"Way Pengubuan","rank":2},"geometry":{"type":"LineString","coordinates":[[105.4469,-4.67235],[105.44759,-4.6737],[105.44663,-4.67803],[105.45337,-4.67492],[105.4563,-4.66944],[105.45345,-4.66801],[105.45355,-4.66549],[105.4553,-4.66367],[105.45754,-4.6633],[105.46077,-4.66439],[105.46014,-4.66587],[105.46244,-4.6672],[105.46279,-4.66394],[105.47178,-4.67141]]}},{"type":"Feature","properties":{"name":"Way Pengubuan","rank":2},"geometry":{"type":"LineString","coordinates":[[105.47178,-4.67141],[105.47478,-4.66755],[105.4741,-4.66445],[105.47144,-4.66377],[105.47049,-4.66064],[105.47888,-4.66072],[105.47864,-4.65897],[105.47954,-4.65785],[105.47844,-4.6568],[105.48027,-4.6549],[105.48349,-4.65469],[105.48817,-4.64933],[105.49208,-4.64961],[105.49817,-4.65323],[105.50169,-4.65194],[105.5017,-4.65652],[105.49677,-4.65844],[105.49764,-4.65982],[105.502,-4.66054],[105.50414,-4.65963],[105.50525,-4.6488],[105.5101,-4.64984],[105.51121,-4.65361],[105.51376,-4.65499],[105.5202,-4.65404],[105.52073,-4.65145]]}},{"type":"Feature","properties":{"name":"Way Seputih","rank":2},"geometry":{"type":"LineString","coordinates":[[105.55058,-4.6137],[105.5512,-4.61214],[105.55267,-4.6118],[105.56591,-4.61565],[105.57022,-4.61554],[105.5747,-4.61682],[105.58183,-4.60769],[105.58246,-4.6049],[105.58179,-4.59888],[105.58439,-4.59684],[105.58684,-4.59905],[105.58536,-4.60332],[105.58613,-4.60611],[105.59252,-4.60931],[105.59886,-4.61524]]}},{"type":"Feature","properties":{"name":"Way Seputih","rank":2},"geometry":{"type":"LineString","coordinates":[[105.65083,-4.6119],[105.66347,-4.61833],[105.66854,-4.61357],[105.67691,-4.61507],[105.67769,-4.61852],[105.6826,-4.62673],[105.68154,-4.63239]]}},{"type":"Feature","properties":{"name":"Way Seputih","rank":2},"geometry":{"type":"LineString","coordinates":[[105.78402,-4.65881],[105.78523,-4.65521],[105.78019,-4.65174],[105.78058,-4.64827],[105.77871,-4.64117],[105.77912,-4.63743],[105.78155,-4.63416]]}},{"type":"Feature","properties":{"name":"Way Seputih","rank":2},"geometry":{"type":"LineString","coordinates":[[105.59886,-4.61524],[105.60496,-4.62302],[105.61326,-4.62832],[105.61759,-4.62848],[105.6213,-4.62503],[105.62361,-4.62419],[105.62884,-4.6264],[105.6342,-4.62375],[105.63632,-4.62469]]}},{"type":"Feature","properties":{"name":"Way Seputih","rank":2},"geometry":{"type":"LineString","coordinates":[[105.7506,-4.67165],[105.75208,-4.67296],[105.75787,-4.67003],[105.76215,-4.66516],[105.76527,-4.66896],[105.76842,-4.66717],[105.77183,-4.66088],[105.7749,-4.65982],[105.78089,-4.66094],[105.78402,-4.65881]]}},{"type":"Feature","properties":{"name":"Way Seputih","rank":2},"geometry":{"type":"LineString","coordinates":[[105.63632,-4.62469],[105.63584,-4.62855],[105.63308,-4.63253],[105.63424,-4.63645],[105.63813,-4.63802],[105.64696,-4.63429],[105.64726,-4.63276],[105.64482,-4.62987],[105.64521,-4.62276],[105.64647,-4.62019],[105.6509,-4.61684],[105.65083,-4.6119]]}},{"type":"Feature","properties":{"name":"Way Seputih","rank":2},"geometry":{"type":"LineString","coordinates":[[105.68154,-4.63239],[105.68298,-4.63412],[105.68782,-4.63392],[105.69267,-4.63653],[105.69626,-4.63649],[105.69825,-4.63996]]}},{"type":"Feature","properties":{"name":"Way Seputih","rank":2},"geometry":{"type":"LineString","coordinates":[[105.69825,-4.63996],[105.70003,-4.64151],[105.70461,-4.63894],[105.70609,-4.63934],[105.71188,-4.64774],[105.71571,-4.66123],[105.72382,-4.66854],[105.73033,-4.66954],[105.73367,-4.66733],[105.73689,-4.66684],[105.73967,-4.66463],[105.74315,-4.66376],[105.74578,-4.66485],[105.7506,-4.67165]]}},{"type":"Feature","properties":{"name":"Way Pegadungan","rank":2},"geometry":{"type":"LineString","coordinates":[[105.69777,-4.73971],[105.7201,-4.73521],[105.72572,-4.73724],[105.72678,-4.73983]]}},{"type":"Feature","properties":{"name":"Way Pegadungan","rank":2},"geometry":{"type":"LineString","coordinates":[[105.74326,-4.73942],[105.74529,-4.73331],[105.74827,-4.73135],[105.75853,-4.73159],[105.75982,-4.73651],[105.76171,-4.73813],[105.76359,-4.73821],[105.76886,-4.73583],[105.7712,-4.73806]]}},{"type":"Feature","properties":{"name":"Way Pegadungan","rank":2},"geometry":{"type":"LineString","coordinates":[[105.7802,-4.73986],[105.78237,-4.73922],[105.78434,-4.73982]]}},{"type":"Feature","properties":{"name":"Way Pegadungan","rank":2},"geometry":{"type":"LineString","coordinates":[[105.8112,-4.73997],[105.80958,-4.73967],[105.8069,-4.73662],[105.80819,-4.73502],[105.81177,-4.73375],[105.8121,-4.7311],[105.80873,-4.72596],[105.80467,-4.7244],[105.80449,-4.72298]]}},{"type":"Feature","properties":{"name":"Way Pegadungan","rank":2},"geometry":{"type":"LineString","coordinates":[[105.80449,-4.72298],[105.80672,-4.71951],[105.80701,-4.71549],[105.80953,-4.70972],[105.81005,-4.70573],[105.81446,-4.70232],[105.81569,-4.70689],[105.81797,-4.70753],[105.82004,-4.7056],[105.82068,-4.70266],[105.82075,-4.69916],[105.81863,-4.69533],[105.81707,-4.69487],[105.81556,-4.69708],[105.81451,-4.69657],[105.81674,-4.69012],[105.81605,-4.68431],[105.81768,-4.68052],[105.81689,-4.67885],[105.81386,-4.67825],[105.81307,-4.67706],[105.81585,-4.67032],[105.81744,-4.662],[105.8162,-4.6536],[105.81688,-4.64932]]}},{"type":"Feature","properties":{"name":"Way Pedada","rank":2},"geometry":{"type":"LineString","coordinates":[[105.25382,-4.31794],[105.25711,-4.31975],[105.26301,-4.31669],[105.26463,-4.31913],[105.26815,-4.32039],[105.26911,-4.32322],[105.27119,-4.32333]]}},{"type":"Feature","properties":{"name":"Way Pedada","rank":2},"geometry":{"type":"LineString","coordinates":[[105.25652,-4.31956],[105.25598,-4.32128],[105.25711,-4.31975]]}},{"type":"Feature","properties":{"name":"Way Pedada","rank":2},"geometry":{"type":"LineString","coordinates":[[105.40332,-4.21878],[105.4072,-4.21758],[105.41122,-4.21923],[105.41809,-4.2202],[105.42305,-4.22411],[105.42597,-4.23008],[105.42789,-4.23001],[105.43671,-4.22558],[105.4528,-4.22035],[105.4559,-4.21832],[105.46001,-4.20314],[105.46355,-4.19868],[105.4682,-4.1982],[105.47219,-4.2023],[105.47565,-4.209],[105.4808,-4.21198],[105.48435,-4.21606],[105.48625,-4.22387],[105.48473,-4.23128],[105.48746,-4.23287],[105.49465,-4.23361],[105.49816,-4.2332],[105.50139,-4.2315],[105.5052,-4.23192],[105.50967,-4.23741],[105.50948,-4.24388]]}},{"type":"Feature","properties":{"name":"Sungai Tulang Bawang","rank":1},"geometry":{"type":"LineString","coordinates":[[105.3659,-4.34273],[105.36458,-4.34082],[105.36467,-4.33734],[105.37023,-4.32272],[105.37167,-4.32004],[105.37537,-4.3156],[105.38038,-4.31238],[105.38337,-4.31087],[105.40369,-4.30562],[105.40944,-4.30422],[105.41422,-4.30378],[105.41754,-4.30395],[105.42137,-4.30496],[105.4255,-4.3081],[105.42767,-4.31198],[105.42953,-4.3136],[105.43142,-4.31421],[105.43407,-4.31409],[105.43593,-4.31294],[105.43755,-4.31076],[105.43851,-4.3046],[105.43975,-4.30303],[105.44097,-4.30313],[105.44876,-4.30675],[105.45276,-4.30918],[105.45688,-4.31237],[105.46072,-4.31684],[105.46851,-4.3219],[105.47014,-4.32395],[105.47174,-4.32766],[105.47164,-4.33154],[105.47066,-4.33355],[105.46476,-4.33928],[105.46487,-4.34241],[105.46546,-4.34349]]}},{"type":"Feature","properties":{"name":"Sungai Tulang Bawang","rank":1},"geometry":{"type":"LineString","coordinates":[[105.61169,-4.36269],[105.61441,-4.36347],[105.618,-4.3615],[105.62037,-4.3572],[105.6227,-4.34482],[105.62471,-4.34233],[105.62751,-4.34116],[105.631,-4.34147],[105.63298,-4.3426],[105.63593,-4.3465],[105.63641,-4.34865],[105.63572,-4.35749],[105.63603,-4.35989],[105.63695,-4.36207],[105.63843,-4.36319],[105.64011,-4.36359],[105.64271,-4.36317],[105.64571,-4.36138],[105.65002,-4.35419],[105.65775,-4.34896],[105.65929,-4.34688],[105.66265,-4.33928],[105.66472,-4.33821],[105.66709,-4.3386],[105.67062,-4.34282],[105.67412,-4.34558],[105.6811,-4.34608],[105.68448,-4.34748],[105.68745,-4.35359],[105.68862,-4.35481],[105.693,-4.35604],[105.69625,-4.35573],[105.69889,-4.35412],[105.69996,-4.35282],[105.70283,-4.34677],[105.70423,-4.34568],[105.70985,-4.34449],[105.71197,-4.34318],[105.71275,-4.34136],[105.71369,-4.33263],[105.71473,-4.33068],[105.71672,-4.32908],[105.7264,-4.32506],[105.72818,-4.32279],[105.73021,-4.31768]]}},{"type":"Feature","properties":{"name":"Sungai Tulang Bawang","rank":1},"geometry":{"type":"LineString","coordinates":[[105.31613,-4.44188],[105.31759,-4.44324],[105.33183,-4.45057],[105.3386,-4.4567],[105.34044,-4.45703],[105.3433,-4.45419],[105.35057,-4.44166],[105.35477,-4.43609],[105.36501,-4.43115],[105.37273,-4.42631],[105.37916,-4.41324],[105.3829,-4.40802],[105.38938,-4.40073],[105.38994,-4.39927],[105.39073,-4.391],[105.39254,-4.38277],[105.39531,-4.37587],[105.39496,-4.37524],[105.38249,-4.36944],[105.37756,-4.36775],[105.36944,-4.36604],[105.36633,-4.36341],[105.36478,-4.35952],[105.36484,-4.35658],[105.36537,-4.35476],[105.36941,-4.34935],[105.36955,-4.348],[105.36933,-4.34638],[105.36842,-4.34496],[105.3659,-4.34273]]}},{"type":"Feature","properties":{"name":"Way Pedada","rank":2},"geometry":{"type":"LineString","coordinates":[[105.50948,-4.24388],[105.51286,-4.24799],[105.51901,-4.24892],[105.53178,-4.24085],[105.54046,-4.24217]]}},{"type":"Feature","properties":{"name":"Way Pedada","rank":2},"geometry":{"type":"LineString","coordinates":[[105.672,-4.26529],[105.67373,-4.2657],[105.67564,-4.2684],[105.68016,-4.26917],[105.68195,-4.27083],[105.68146,-4.27367],[105.67751,-4.27476],[105.67651,-4.2765],[105.67723,-4.27981],[105.6796,-4.28176],[105.68501,-4.28124],[105.68936,-4.27857],[105.68997,-4.27585],[105.6872,-4.27286],[105.68839,-4.27018],[105.69395,-4.26857],[105.69651,-4.27135]]}},{"type":"Feature","properties":{"name":"Way Pedada","rank":2},"geometry":{"type":"LineString","coordinates":[[105.60069,-4.31088],[105.60395,-4.31329],[105.60911,-4.31197],[105.61493,-4.30739],[105.62059,-4.30595],[105.62373,-4.30309],[105.62582,-4.29842],[105.6299,-4.29531],[105.63638,-4.29321],[105.63748,-4.28314],[105.63465,-4.28007],[105.63809,-4.27729],[105.64137,-4.27206],[105.64619,-4.27271],[105.65045,-4.27715],[105.65115,-4.27877],[105.64953,-4.28232],[105.65011,-4.28501],[105.65263,-4.28665],[105.65479,-4.2867],[105.6613,-4.28355],[105.66253,-4.2821],[105.66211,-4.27945],[105.65812,-4.27653],[105.6581,-4.27377],[105.66053,-4.26995],[105.672,-4.26529]]}},{"type":"Feature","properties":{"name":"Way Pedada","rank":2},"geometry":{"type":"LineString","coordinates":[[105.54046,-4.24217],[105.54374,-4.24044],[105.54651,-4.23499],[105.54678,-4.2324],[105.54614,-4.22965],[105.5419,-4.22717],[105.53949,-4.22319],[105.53961,-4.22178],[105.55211,-4.21321],[105.55474,-4.21372],[105.55936,-4.21911],[105.56727,-4.2235],[105.57757,-4.226],[105.5861,-4.22412],[105.59353,-4.22756],[105.59922,-4.23226],[105.60374,-4.24089],[105.60466,-4.24456],[105.60092,-4.24843],[105.59977,-4.25235],[105.60021,-4.2544],[105.6044,-4.2581],[105.61262,-4.26189],[105.61508,-4.26463],[105.61705,-4.26984],[105.61741,-4.27842],[105.61933,-4.28213],[105.61894,-4.2844],[105.61519,-4.29047],[105.61355,-4.28996],[105.60994,-4.28612],[105.60732,-4.28067],[105.60381,-4.28061],[105.60182,-4.28216],[105.59759,-4.29191],[105.59807,-4.29614],[105.60205,-4.29827],[105.60289,-4.29983],[105.60265,-4.30215],[105.59956,-4.30715],[105.60069,-4.31088]]}},{"type":"Feature","properties":{"name":"Way Pedada","rank":2},"geometry":{"type":"LineString","coordinates":[[105.36624,-4.2825],[105.36757,-4.28351],[105.37086,-4.28163],[105.37581,-4.27298],[105.37981,-4.27146],[105.38247,-4.26746],[105.38052,-4.26053],[105.37671,-4.25655],[105.38006,-4.25044],[105.38617,-4.25145],[105.39079,-4.25435],[105.39845,-4.25592],[105.40181,-4.25375],[105.40592,-4.24536],[105.408,-4.23751],[105.40702,-4.23048],[105.40419,-4.22709],[105.40326,-4.22331],[105.4022,-4.22287],[105.40332,-4.21878]]}},{"type":"Feature","properties":{"name":"Way Pedada","rank":2},"geometry":{"type":"LineString","coordinates":[[105.20333,-4.3037],[105.20481,-4.30509],[105.20797,-4.30392],[105.20908,-4.30445],[105.21192,-4.30249],[105.21293,-4.3039],[105.21457,-4.30304]]}},{"type":"Feature","properties":{"name":"Way Pedada","rank":2},"geometry":{"type":"LineString","coordinates":[[105.18618,-4.3033],[105.18769,-4.30538],[105.18732,-4.30745],[105.18836,-4.30646],[105.18856,-4.30772],[105.19113,-4.30765],[105.19132,-4.30844],[105.19181,-4.30751],[105.19352,-4.30969],[105.19478,-4.30877],[105.19451,-4.30781],[105.19577,-4.30752],[105.19635,-4.30532],[105.19921,-4.30452],[105.19982,-4.30264],[105.2012,-4.30234],[105.20239,-4.30363],[105.20307,-4.30286],[105.20333,-4.3037]]}},{"type":"Feature","properties":{"name":"Way Kiri","rank":2},"geometry":{"type":"LineString","coordinates":[[105.10006,-4.44651],[105.10134,-4.44868],[105.11332,-4.45646],[105.1153,-4.45195],[105.11845,-4.45028],[105.11928,-4.4487],[105.11433,-4.44559],[105.11389,-4.4431]]}},{"type":"Feature","properties":{"name":"","rank":3},"geometry":{"type":"LineString","coordinates":[[105.36381,-4.09034],[105.36723,-4.09025],[105.37015,-4.09692],[105.37222,-4.09836],[105.379,-4.09029],[105.38189,-4.0907],[105.38502,-4.09328],[105.38816,-4.09232],[105.38962,-4.08923],[105.38834,-4.08408],[105.39029,-4.08159],[105.3926,-4.08142],[105.39903,-4.0847],[105.40488,-4.08075],[105.40685,-4.08083],[105.40937,-4.08401],[105.40531,-4.09163],[105.40592,-4.09618],[105.41291,-4.09943],[105.41795,-4.09485],[105.42221,-4.09544],[105.42449,-4.09872],[105.42492,-4.10723],[105.42664,-4.11063],[105.4346,-4.11386],[105.43811,-4.11379],[105.44013,-4.11239],[105.44157,-4.10056],[105.44972,-4.0937],[105.45127,-4.08337],[105.44545,-4.07303],[105.45154,-4.06736],[105.4536,-4.06079]]}},{"type":"Feature","properties":{"name":"","rank":3},"geometry":{"type":"LineString","coordinates":[[105.48336,-4.06014],[105.48493,-4.06404],[105.48156,-4.07102],[105.48479,-4.07574],[105.49523,-4.07363],[105.50714,-4.06336],[105.51744,-4.06034]]}}]}